{
  "id": 1125789639,
  "type": "Feature",
  "properties": {
    "edtf:cessation":"uuuu",
    "edtf:inception":"uuuu",
    "geom:area":0.021167,
    "geom:area_square_m":186091785.921003,
    "geom:bbox":"5.79062,44.605643,5.993118,44.76361",
    "geom:latitude":44.68479,
    "geom:longitude":5.890829,
    "gn:gn_country":"FR",
    "gn:gn_fcode":"PPL",
    "gn:gn_pop":57,
    "gn:population":57,
    "iso:country":"FR",
    "lbl:latitude":44.63946,
    "lbl:longitude":5.84776,
    "mz:hierarchy_label":1,
    "mz:is_current":1,
    "mz:note":"Quattroshapes Point Gazetteer import 20170519",
    "name:aze_x_preferred":[
        "D\u00e9voluy"
    ],
    "name:bug_x_preferred":[
        "D\u00e9voluy"
    ],
    "name:cat_x_preferred":[
        "D\u00e9voluy"
    ],
    "name:ceb_x_preferred":[
        "D\u00e9voluy"
    ],
    "name:che_x_preferred":[
        "D\u00e9voluy"
    ],
    "name:deu_x_preferred":[
        "D\u00e9voluy"
    ],
    "name:eng_x_preferred":[
        "D\u00e9voluy"
    ],
    "name:eus_x_preferred":[
        "D\u00e9voluy"
    ],
    "name:fra_x_preferred":[
        "D\u00e9voluy"
    ],
    "name:fra_x_variant":[
        "La Cluse"
    ],
    "name:gle_x_preferred":[
        "D\u00e9voluy"
    ],
    "name:hbs_x_preferred":[
        "D\u00e9voluy"
    ],
    "name:hun_x_preferred":[
        "D\u00e9voluy"
    ],
    "name:ita_x_preferred":[
        "D\u00e9voluy"
    ],
    "name:lat_x_preferred":[
        "D\u00e9voluy"
    ],
    "name:lld_x_preferred":[
        "D\u00e9voluy"
    ],
    "name:lmo_x_preferred":[
        "D\u00e9voluy"
    ],
    "name:msa_x_preferred":[
        "D\u00e9voluy"
    ],
    "name:nld_x_preferred":[
        "D\u00e9voluy"
    ],
    "name:nob_x_preferred":[
        "D\u00e9voluy"
    ],
    "name:oci_x_preferred":[
        "D\u00e9voluy"
    ],
    "name:pms_x_preferred":[
        "D\u00e9voluy"
    ],
    "name:pol_x_preferred":[
        "D\u00e9voluy"
    ],
    "name:por_x_preferred":[
        "D\u00e9voluy"
    ],
    "name:ron_x_preferred":[
        "D\u00e9voluy"
    ],
    "name:rus_x_preferred":[
        "D\u00e9voluy"
    ],
    "name:slk_x_preferred":[
        "D\u00e9voluy"
    ],
    "name:spa_x_preferred":[
        "D\u00e9voluy"
    ],
    "name:srp_x_preferred":[
        "D\u00e9voluy"
    ],
    "name:swe_x_preferred":[
        "D\u00e9voluy"
    ],
    "name:tat_x_preferred":[
        "D\u00e9voluy"
    ],
    "name:ukr_x_preferred":[
        "D\u00e9voluy"
    ],
    "name:urd_x_preferred":[
        "D\u00e9voluy"
    ],
    "name:vie_x_preferred":[
        "D\u00e9voluy"
    ],
    "name:vol_x_preferred":[
        "D\u00e9voluy"
    ],
    "name:war_x_preferred":[
        "D\u00e9voluy"
    ],
    "name:zho_x_preferred":[
        "D\u00e9voluy"
    ],
    "qs_pg:aaroncc":"FR",
    "qs_pg:gn_country":"FR",
    "qs_pg:gn_fcode":"PPL",
    "qs_pg:gn_id":3010002,
    "qs_pg:gn_pop":57,
    "qs_pg:name":"La Cluse",
    "qs_pg:name_adm0":"France",
    "qs_pg:name_adm1":"Provence-Alpes-C\u00f4te d'Azur",
    "qs_pg:photos_9k":1,
    "qs_pg:photos_9r":1,
    "qs_pg:photos_all":1,
    "qs_pg:photos_sr":0,
    "qs_pg:pop_sr":1,
    "qs_pg:qs_id":270033,
    "qs_pg:qs_pg_placetype":"locality",
    "qs_pg:qs_pg_placetype_gp":"Town",
    "qs_pg:woe_adm0":23424819,
    "qs_pg:woe_id":597761,
    "src:geom":"frgov",
    "src:geom_alt":[
        "qs_pg"
    ],
    "src:lbl:centroid":"qs_pg",
    "src:population":"geonames",
    "woe:adm0_id":23424819,
    "woe:name_adm0":"France",
    "woe:name_adm1":"Provence-Alpes-C\u00f4te d'Azur",
    "woe:placetype":"Town",
    "wof:belongsto":[
        85683597,
        102191581,
        85633147,
        404355257,
        404227805,
        404227445,
        102067793
    ],
    "wof:breaches":[],
    "wof:concordances":{
        "gn:id":3010002,
        "gp:id":597761,
        "qs_pg:id":270033,
        "wd:id":"Q1017858"
    },
    "wof:coterminous":[
        404355257
    ],
    "wof:country":"FR",
    "wof:created":1497290818,
    "wof:geom_alt":[
        "qs_pg"
    ],
    "wof:geomhash":"7256da5a09170e5b23f10fea4c4d351c",
    "wof:hierarchy":[
        {
            "continent_id":102191581,
            "country_id":85633147,
            "county_id":102067793,
            "localadmin_id":404355257,
            "locality_id":1125789639,
            "macrocounty_id":404227805,
            "macroregion_id":404227445,
            "region_id":85683597
        }
    ],
    "wof:id":1125789639,
    "wof:lastmodified":1690904067,
    "wof:name":"D\u00e9voluy",
    "wof:parent_id":404355257,
    "wof:placetype":"locality",
    "wof:population":57,
    "wof:population_rank":1,
    "wof:repo":"whosonfirst-data-admin-fr",
    "wof:superseded_by":[],
    "wof:supersedes":[],
    "wof:tags":[]
},
  "bbox": [
    5.79062,
    44.605643,
    5.993118,
    44.76361
],
  "geometry": {"coordinates":[[[5.800899,44.632852],[5.80109,44.634153],[5.80139,44.634857],[5.802147,44.635874],[5.802444,44.636533],[5.802406,44.637029],[5.80099,44.638741],[5.801197,44.639096],[5.801429,44.639973],[5.801991,44.640607],[5.802628,44.640726],[5.803017,44.640942],[5.803274,44.642052],[5.803607,44.645692],[5.802814,44.645991],[5.800755,44.646458],[5.800386,44.646647],[5.800212,44.646967],[5.799846,44.647202],[5.797556,44.647854],[5.795413,44.648908],[5.794873,44.649471],[5.79477,44.649699],[5.794398,44.650069],[5.793053,44.650698],[5.792534,44.651431],[5.791569,44.65232],[5.790985,44.653011],[5.79062,44.65329],[5.79116,44.653997],[5.791521,44.654664],[5.79234,44.65567],[5.792166,44.656981],[5.791427,44.658621],[5.792521,44.660836],[5.794376,44.66133],[5.795076,44.661447],[5.795658,44.661739],[5.7966,44.662661],[5.79763,44.663076],[5.797841,44.663251],[5.797938,44.663924],[5.79843,44.664948],[5.799048,44.665698],[5.799454,44.667255],[5.799351,44.667483],[5.799043,44.667635],[5.799052,44.667806],[5.799309,44.667889],[5.799941,44.667919],[5.800202,44.668092],[5.80037,44.668673],[5.800391,44.669339],[5.799631,44.670314],[5.799664,44.670718],[5.800271,44.671505],[5.800175,44.671867],[5.799285,44.672755],[5.799429,44.673111],[5.799619,44.673377],[5.799467,44.673876],[5.799348,44.674014],[5.799418,44.674148],[5.800061,44.674393],[5.801186,44.675175],[5.802732,44.675802],[5.803262,44.676059],[5.805191,44.676767],[5.806475,44.677185],[5.807551,44.677239],[5.810101,44.678507],[5.811249,44.678739],[5.812155,44.679176],[5.812827,44.679735],[5.813088,44.679909],[5.813277,44.679904],[5.813282,44.679994],[5.814437,44.680631],[5.815044,44.681156],[5.817163,44.681859],[5.817691,44.682071],[5.81829,44.682677],[5.819671,44.683534],[5.821096,44.684254],[5.823422,44.68505],[5.824633,44.685281],[5.825803,44.685692],[5.827165,44.686414],[5.828175,44.687424],[5.829224,44.688199],[5.829691,44.688683],[5.829875,44.689579],[5.830441,44.690547],[5.830042,44.691151],[5.829682,44.691521],[5.829475,44.692427],[5.829119,44.692887],[5.829017,44.693114],[5.829409,44.693375],[5.829481,44.693553],[5.828864,44.693839],[5.828548,44.694099],[5.828302,44.694484],[5.828112,44.694957],[5.827792,44.695389],[5.827525,44.695846],[5.827163,44.69645],[5.827254,44.696754],[5.82731,44.697356],[5.827344,44.698031],[5.827179,44.69826],[5.827207,44.699836],[5.827116,44.700289],[5.826187,44.700898],[5.825407,44.701468],[5.824718,44.701575],[5.82411,44.70205],[5.821888,44.702837],[5.820362,44.703641],[5.819404,44.703675],[5.817875,44.703407],[5.815909,44.703241],[5.814963,44.703265],[5.813969,44.703615],[5.813369,44.70399],[5.812674,44.704999],[5.812127,44.705427],[5.811331,44.705673],[5.808685,44.705803],[5.808493,44.705763],[5.808038,44.705504],[5.807534,44.705517],[5.805451,44.705804],[5.803875,44.705853],[5.803136,44.706241],[5.802461,44.706393],[5.801844,44.706688],[5.80147,44.706779],[5.801192,44.707281],[5.801254,44.708279],[5.801592,44.708721],[5.802438,44.709231],[5.802923,44.710075],[5.803188,44.710338],[5.804872,44.710908],[5.805453,44.711164],[5.807461,44.711915],[5.80816,44.711987],[5.808797,44.712106],[5.810318,44.712194],[5.810831,44.712352],[5.811167,44.712749],[5.811588,44.714359],[5.811658,44.715754],[5.811567,44.716207],[5.81133,44.716528],[5.81107,44.717399],[5.811158,44.717893],[5.811702,44.71841],[5.813425,44.719754],[5.814668,44.720614],[5.814945,44.721103],[5.814811,44.721962],[5.814862,44.722735],[5.815366,44.723704],[5.816133,44.726162],[5.816574,44.727133],[5.817408,44.728409],[5.81802,44.729024],[5.818165,44.729381],[5.818009,44.73006],[5.817538,44.730748],[5.817676,44.73097],[5.818533,44.731443],[5.819307,44.731739],[5.820243,44.732517],[5.820696,44.732731],[5.821417,44.733244],[5.821653,44.733913],[5.822395,44.734615],[5.822483,44.735108],[5.822697,44.73559],[5.823351,44.736032],[5.823793,44.736021],[5.823852,44.735929],[5.824106,44.735959],[5.82469,44.736259],[5.825421,44.736727],[5.825698,44.737216],[5.826457,44.738232],[5.826826,44.739025],[5.827434,44.73982],[5.827777,44.74009],[5.829307,44.74161],[5.829743,44.7425],[5.82979,44.743174],[5.829625,44.743674],[5.829143,44.744137],[5.828726,44.744381],[5.827798,44.745036],[5.827531,44.745763],[5.82746,44.747612],[5.827921,44.748996],[5.828415,44.750011],[5.82845,44.75046],[5.828031,44.750931],[5.827862,44.75134],[5.827457,44.751846],[5.826702,44.754163],[5.826466,44.756511],[5.82665,44.757407],[5.827029,44.758659],[5.827093,44.759693],[5.827657,44.759589],[5.831269,44.758487],[5.83388,44.757862],[5.835194,44.757603],[5.835693,44.757455],[5.836581,44.757514],[5.837735,44.757835],[5.838429,44.757818],[5.839482,44.757376],[5.840199,44.756817],[5.840955,44.756753],[5.841376,44.756337],[5.841609,44.756196],[5.842869,44.754848],[5.843208,44.754299],[5.844639,44.752857],[5.845486,44.752339],[5.846176,44.751997],[5.846789,44.751621],[5.848397,44.751165],[5.849964,44.7509],[5.850399,44.750745],[5.850843,44.750778],[5.85188,44.751283],[5.852446,44.751223],[5.853507,44.750962],[5.854134,44.750856],[5.85608,44.750841],[5.857682,44.751016],[5.860676,44.751462],[5.865231,44.751551],[5.866248,44.751651],[5.86669,44.751639],[5.867594,44.750769],[5.868315,44.750291],[5.870506,44.749865],[5.87164,44.749781],[5.871618,44.749602],[5.871214,44.749117],[5.871204,44.748937],[5.872997,44.748386],[5.873948,44.748451],[5.874142,44.748536],[5.874494,44.748978],[5.874947,44.749191],[5.875458,44.749304],[5.877399,44.748929],[5.878886,44.748341],[5.879003,44.748158],[5.878839,44.747667],[5.879073,44.7473],[5.879501,44.747019],[5.880423,44.746761],[5.881807,44.746635],[5.884095,44.746881],[5.885245,44.747113],[5.885456,44.747287],[5.885841,44.747403],[5.886234,44.747663],[5.887265,44.748042],[5.887621,44.748573],[5.888834,44.748803],[5.888969,44.748979],[5.889418,44.750094],[5.889259,44.751675],[5.889422,44.752391],[5.890044,44.753177],[5.890978,44.753873],[5.890922,44.75401],[5.890735,44.754069],[5.890805,44.754193],[5.891136,44.7545],[5.891359,44.754899],[5.891435,44.755393],[5.891959,44.755739],[5.892274,44.755722],[5.892649,44.755397],[5.892963,44.755344],[5.893623,44.754912],[5.894058,44.754766],[5.894629,44.754796],[5.895737,44.755208],[5.896196,44.755521],[5.896871,44.75635],[5.897144,44.756748],[5.898138,44.757389],[5.898463,44.75756],[5.898856,44.75782],[5.900146,44.758318],[5.900718,44.758384],[5.902107,44.758348],[5.902535,44.758066],[5.905644,44.758282],[5.907599,44.758186],[5.910862,44.757713],[5.912435,44.756581],[5.912552,44.756398],[5.913896,44.755732],[5.915233,44.754706],[5.915467,44.754339],[5.915712,44.754189],[5.916614,44.753534],[5.917295,44.752291],[5.917954,44.751823],[5.919008,44.751426],[5.919639,44.75141],[5.920665,44.751689],[5.92113,44.752127],[5.922205,44.754081],[5.923265,44.754764],[5.923735,44.755293],[5.924077,44.755554],[5.924224,44.755946],[5.924388,44.756663],[5.924844,44.756921],[5.926184,44.757156],[5.926815,44.757139],[5.928045,44.757683],[5.929228,44.758319],[5.930262,44.758733],[5.931079,44.759621],[5.931331,44.759605],[5.931516,44.75951],[5.932907,44.75951],[5.933662,44.759445],[5.93431,44.759734],[5.935189,44.75962],[5.935441,44.759614],[5.936215,44.7599],[5.93655,44.760251],[5.936768,44.760561],[5.937425,44.761039],[5.937922,44.761836],[5.938168,44.762677],[5.937986,44.763051],[5.937269,44.76361],[5.937774,44.763597],[5.938009,44.763501],[5.938827,44.763425],[5.94021,44.763019],[5.942264,44.762649],[5.943393,44.762475],[5.945387,44.761917],[5.948211,44.760788],[5.949453,44.76035],[5.951122,44.759621],[5.951074,44.758946],[5.951456,44.758035],[5.952085,44.757018],[5.95194,44.756662],[5.951424,44.756234],[5.950888,44.755888],[5.94995,44.754877],[5.949577,44.754031],[5.949521,44.753221],[5.949733,44.752675],[5.949646,44.752227],[5.94923,44.751526],[5.949001,44.750767],[5.94921,44.750176],[5.949577,44.749941],[5.949885,44.749788],[5.949764,44.747954],[5.949218,44.747202],[5.948891,44.746986],[5.948746,44.746629],[5.948714,44.74627],[5.948383,44.745972],[5.948352,44.745387],[5.948433,44.744755],[5.94871,44.744252],[5.949008,44.74392],[5.95059,44.740814],[5.951008,44.740344],[5.951275,44.739661],[5.951453,44.739431],[5.951597,44.738571],[5.951579,44.737265],[5.951362,44.73601],[5.95121,44.735527],[5.951431,44.734927],[5.951604,44.734607],[5.951597,44.734472],[5.95193,44.733832],[5.952171,44.733601],[5.952482,44.732556],[5.952502,44.73197],[5.952677,44.731695],[5.953284,44.73122],[5.954638,44.729562],[5.955468,44.728765],[5.95558,44.728492],[5.955438,44.72818],[5.955462,44.727684],[5.955852,44.726682],[5.956088,44.726361],[5.956335,44.726264],[5.956781,44.726333],[5.957043,44.726507],[5.957172,44.726548],[5.957548,44.726493],[5.958051,44.725489],[5.958395,44.725065],[5.958369,44.72457],[5.958222,44.724178],[5.958878,44.72343],[5.959131,44.723424],[5.959322,44.723464],[5.959701,44.723453],[5.959813,44.72318],[5.959825,44.722459],[5.961577,44.720196],[5.96349,44.718379],[5.963667,44.718149],[5.963374,44.717616],[5.963646,44.717023],[5.96369,44.716662],[5.964176,44.716288],[5.965278,44.715619],[5.965579,44.715341],[5.966131,44.714065],[5.966842,44.713406],[5.967019,44.713176],[5.968043,44.712473],[5.968548,44.712225],[5.96908,44.71176],[5.969553,44.711162],[5.970439,44.710228],[5.970561,44.710135],[5.972967,44.710242],[5.980721,44.709952],[5.981282,44.709802],[5.982327,44.708548],[5.983116,44.707941],[5.983801,44.706788],[5.983968,44.706612],[5.984728,44.706411],[5.98565,44.705927],[5.986188,44.705597],[5.986683,44.705395],[5.988121,44.705122],[5.988679,44.704926],[5.990231,44.70465],[5.990894,44.704056],[5.992701,44.702637],[5.99293,44.702181],[5.993002,44.701413],[5.992848,44.700886],[5.992503,44.70058],[5.990534,44.699417],[5.990394,44.698925],[5.99028,44.698207],[5.989847,44.697417],[5.985509,44.693498],[5.980646,44.689692],[5.978373,44.687546],[5.977904,44.687027],[5.976956,44.686062],[5.976688,44.685763],[5.975556,44.684892],[5.975479,44.684633],[5.976262,44.683927],[5.976486,44.683381],[5.976642,44.682025],[5.976924,44.681387],[5.977823,44.680723],[5.978574,44.679396],[5.979267,44.678423],[5.979686,44.678231],[5.980251,44.678171],[5.980755,44.678148],[5.981224,44.67746],[5.981437,44.676959],[5.981794,44.676544],[5.982156,44.676219],[5.982507,44.675705],[5.984086,44.673815],[5.985035,44.672889],[5.985564,44.672154],[5.98585,44.67065],[5.986187,44.670101],[5.986549,44.669776],[5.986886,44.669226],[5.987127,44.668769],[5.988198,44.667785],[5.988792,44.667319],[5.989573,44.665622],[5.989923,44.665072],[5.989894,44.664532],[5.98969,44.664267],[5.989518,44.663641],[5.989206,44.663704],[5.98893,44.663261],[5.988838,44.662948],[5.988926,44.662225],[5.989211,44.661902],[5.989516,44.660497],[5.98963,44.658377],[5.99012,44.657138],[5.990276,44.656504],[5.989968,44.65571],[5.989631,44.655305],[5.988786,44.654841],[5.988309,44.654404],[5.987914,44.653153],[5.987671,44.652132],[5.987913,44.650991],[5.987786,44.650012],[5.987861,44.649289],[5.989195,44.645415],[5.989615,44.644999],[5.990176,44.644884],[5.991093,44.644319],[5.991657,44.643304],[5.992268,44.642927],[5.993118,44.642534],[5.993111,44.6424],[5.992717,44.642104],[5.991244,44.641702],[5.989854,44.641659],[5.989595,44.641531],[5.989362,44.640951],[5.989163,44.640768],[5.988092,44.640806],[5.987581,44.640684],[5.98732,44.64052],[5.986845,44.640128],[5.985913,44.640162],[5.985363,44.640492],[5.984924,44.640549],[5.984287,44.64044],[5.983025,44.640429],[5.982545,44.640892],[5.982119,44.640949],[5.981869,44.641001],[5.979493,44.640452],[5.978863,44.640469],[5.978008,44.640771],[5.977194,44.640883],[5.976622,44.640809],[5.975736,44.640751],[5.975285,44.640583],[5.97481,44.640191],[5.974052,44.640175],[5.973541,44.640054],[5.973099,44.640039],[5.972517,44.639775],[5.971976,44.63933],[5.971529,44.639216],[5.971047,44.639409],[5.970477,44.639379],[5.96969,44.639049],[5.968988,44.638888],[5.968363,44.639004],[5.96704,44.639048],[5.96634,44.638932],[5.965645,44.638185],[5.965604,44.637654],[5.965213,44.637656],[5.96446,44.637244],[5.963921,44.637078],[5.96302,44.636976],[5.962546,44.636844],[5.961752,44.636623],[5.960599,44.636284],[5.959737,44.636208],[5.958876,44.636393],[5.958175,44.636016],[5.957297,44.635886],[5.956448,44.635575],[5.954539,44.635743],[5.953463,44.63543],[5.952516,44.634942],[5.951911,44.634706],[5.951561,44.634526],[5.950387,44.633791],[5.949735,44.633638],[5.94929,44.633559],[5.948639,44.63318],[5.947612,44.632847],[5.946711,44.632745],[5.945283,44.631982],[5.944266,44.631828],[5.943796,44.631526],[5.943348,44.631402],[5.942694,44.630708],[5.941575,44.630071],[5.938864,44.629116],[5.938521,44.628837],[5.937661,44.628788],[5.936,44.627427],[5.935103,44.626667],[5.931595,44.627382],[5.931248,44.627499],[5.929922,44.627723],[5.927096,44.627951],[5.926349,44.628151],[5.925827,44.628534],[5.924817,44.629507],[5.924774,44.629643],[5.924303,44.630295],[5.923653,44.630898],[5.922785,44.631191],[5.921416,44.631552],[5.920294,44.631807],[5.918853,44.631989],[5.91753,44.632033],[5.915786,44.632223],[5.914589,44.632255],[5.912707,44.632448],[5.912271,44.632559],[5.911452,44.632581],[5.909967,44.632899],[5.909029,44.633293],[5.908907,44.633386],[5.908478,44.633623],[5.907823,44.634135],[5.907088,44.63456],[5.906359,44.63485],[5.905356,44.634975],[5.905358,44.63502],[5.905293,44.634977],[5.904015,44.634659],[5.902841,44.634158],[5.901648,44.633289],[5.901053,44.632764],[5.900862,44.632724],[5.90079,44.632546],[5.899861,44.631903],[5.898641,44.631494],[5.897083,44.630634],[5.89424,44.629555],[5.893908,44.629249],[5.894151,44.629062],[5.894736,44.628416],[5.895051,44.627417],[5.895417,44.627182],[5.895444,44.626731],[5.895228,44.626196],[5.895307,44.625293],[5.894666,44.625085],[5.891631,44.623957],[5.890063,44.623151],[5.888662,44.622882],[5.888142,44.62258],[5.887854,44.622137],[5.887379,44.621474],[5.885574,44.619962],[5.885071,44.61975],[5.884872,44.619801],[5.884119,44.619874],[5.883738,44.619839],[5.881872,44.6196],[5.881139,44.619321],[5.880443,44.61952],[5.879499,44.619319],[5.878214,44.619596],[5.875684,44.61895],[5.875351,44.618112],[5.87482,44.617855],[5.874588,44.617997],[5.874352,44.618075],[5.873696,44.618056],[5.873597,44.617851],[5.873109,44.617188],[5.872541,44.616942],[5.872268,44.616516],[5.871378,44.616386],[5.870764,44.616213],[5.868932,44.616153],[5.868296,44.615548],[5.867283,44.615232],[5.867002,44.614915],[5.866763,44.614668],[5.866068,44.614407],[5.864307,44.614237],[5.863015,44.613631],[5.862781,44.613249],[5.861951,44.612793],[5.861464,44.612392],[5.861001,44.611728],[5.860175,44.611344],[5.859729,44.611013],[5.859239,44.611044],[5.858901,44.610845],[5.859172,44.610235],[5.858859,44.609522],[5.85845,44.609172],[5.858165,44.608765],[5.85757,44.608484],[5.856977,44.607724],[5.856568,44.607122],[5.856457,44.605927],[5.855938,44.605643],[5.854474,44.606609],[5.853135,44.607805],[5.853038,44.608123],[5.853245,44.608478],[5.853279,44.609153],[5.853113,44.609608],[5.852518,44.610073],[5.851779,44.610417],[5.851019,44.610346],[5.850342,44.610679],[5.849417,44.610838],[5.84899,44.611119],[5.848423,44.611143],[5.847852,44.611068],[5.846984,44.611369],[5.845914,44.611406],[5.845372,44.611645],[5.844179,44.612],[5.843632,44.612419],[5.843053,44.613191],[5.84269,44.61348],[5.842025,44.613812],[5.840878,44.614571],[5.840012,44.614909],[5.83951,44.615201],[5.839244,44.615929],[5.838812,44.61612],[5.83825,44.616224],[5.83818,44.6161],[5.837029,44.614778],[5.836177,44.614125],[5.835466,44.613791],[5.834319,44.613551],[5.832858,44.613597],[5.832119,44.61394],[5.830947,44.614205],[5.829506,44.614404],[5.827825,44.614582],[5.825672,44.614898],[5.824582,44.615295],[5.823855,44.615638],[5.823261,44.615861],[5.82242,44.616197],[5.820778,44.61741],[5.819857,44.618155],[5.818728,44.619048],[5.817772,44.619595],[5.816889,44.620095],[5.815504,44.620653],[5.814836,44.621165],[5.814194,44.621956],[5.813809,44.622822],[5.81376,44.623364],[5.813561,44.624179],[5.813417,44.624823],[5.814091,44.625445],[5.814403,44.625635],[5.813681,44.626077],[5.81294,44.626402],[5.811057,44.627585],[5.810027,44.628692],[5.809011,44.629322],[5.808354,44.629789],[5.807665,44.629896],[5.806732,44.630154],[5.804171,44.63167],[5.802825,44.632253],[5.800899,44.632852]]],"type":"Polygon"}
}