{
  "id": 101751131,
  "type": "Feature",
  "properties": {
    "edtf:cessation":"uuuu",
    "edtf:inception":"uuuu",
    "geom:area":0.000441,
    "geom:area_square_m":3589635.277324,
    "geom:bbox":"2.278334,48.766604,2.31427,48.785398",
    "geom:latitude":48.77648,
    "geom:longitude":2.296465,
    "gn:population":21511,
    "iso:country":"FR",
    "lbl:latitude":48.77627,
    "lbl:longitude":2.296479,
    "mps:latitude":48.77627,
    "mps:longitude":2.296479,
    "mz:hierarchy_label":1,
    "mz:is_current":1,
    "name:afr_x_preferred":[
        "Sceaux"
    ],
    "name:aka_x_preferred":[
        "Sceaux"
    ],
    "name:ara_x_preferred":[
        "\u0634\u0648"
    ],
    "name:arg_x_preferred":[
        "Sceaux"
    ],
    "name:ast_x_preferred":[
        "Sceaux"
    ],
    "name:aze_x_preferred":[
        "So"
    ],
    "name:bam_x_preferred":[
        "Sceaux"
    ],
    "name:bar_x_preferred":[
        "Sceaux"
    ],
    "name:bel_x_preferred":[
        "\u0421\u043e"
    ],
    "name:bre_x_preferred":[
        "Sceaux"
    ],
    "name:bul_x_preferred":[
        "\u0421\u043e"
    ],
    "name:cat_x_preferred":[
        "Sceaux"
    ],
    "name:ceb_x_preferred":[
        "Sceaux"
    ],
    "name:ces_x_preferred":[
        "Sceaux"
    ],
    "name:che_x_preferred":[
        "\u0421\u043e"
    ],
    "name:cos_x_preferred":[
        "Sceaux"
    ],
    "name:cym_x_preferred":[
        "Sceaux"
    ],
    "name:dan_x_preferred":[
        "Sceaux"
    ],
    "name:deu_x_preferred":[
        "Sceaux"
    ],
    "name:ell_x_preferred":[
        "\u03a3\u03c9"
    ],
    "name:eng_x_preferred":[
        "Sceaux"
    ],
    "name:epo_x_preferred":[
        "Sceaux"
    ],
    "name:est_x_preferred":[
        "Sceaux"
    ],
    "name:eus_x_preferred":[
        "Sceaux"
    ],
    "name:fao_x_preferred":[
        "Sceaux"
    ],
    "name:fas_x_preferred":[
        "\u0633\u0648"
    ],
    "name:fin_x_preferred":[
        "Sceaux"
    ],
    "name:fra_x_preferred":[
        "Sceaux"
    ],
    "name:frc_x_preferred":[
        "Sceaux"
    ],
    "name:frp_x_preferred":[
        "Sceaux"
    ],
    "name:fur_x_preferred":[
        "Sceaux"
    ],
    "name:gla_x_preferred":[
        "Sceaux"
    ],
    "name:gle_x_preferred":[
        "Sceaux"
    ],
    "name:glg_x_preferred":[
        "Sceaux"
    ],
    "name:gsw_x_preferred":[
        "Sceaux"
    ],
    "name:heb_x_preferred":[
        "\u05e1\u05d5"
    ],
    "name:hrv_x_preferred":[
        "Sceaux"
    ],
    "name:hun_x_preferred":[
        "Sceaux"
    ],
    "name:hye_x_preferred":[
        "\u054d\u0578"
    ],
    "name:ido_x_preferred":[
        "Sceaux"
    ],
    "name:ile_x_preferred":[
        "Sceaux"
    ],
    "name:ilo_x_preferred":[
        "Sceaux"
    ],
    "name:ina_x_preferred":[
        "Sceaux"
    ],
    "name:ind_x_preferred":[
        "Sceaux"
    ],
    "name:isl_x_preferred":[
        "Sceaux"
    ],
    "name:ita_x_preferred":[
        "Sceaux"
    ],
    "name:jam_x_preferred":[
        "Sceaux"
    ],
    "name:jpn_x_preferred":[
        "\u30bd\u30fc"
    ],
    "name:kab_x_preferred":[
        "Sceaux"
    ],
    "name:kal_x_preferred":[
        "Sceaux"
    ],
    "name:kat_x_preferred":[
        "\u10e1\u10dd"
    ],
    "name:kaz_x_preferred":[
        "\u0421\u043e"
    ],
    "name:kon_x_preferred":[
        "Sceaux"
    ],
    "name:lat_x_preferred":[
        "Cellae"
    ],
    "name:lav_x_preferred":[
        "Sceaux"
    ],
    "name:lij_x_preferred":[
        "Sceaux"
    ],
    "name:lim_x_preferred":[
        "Sceaux"
    ],
    "name:lit_x_preferred":[
        "Sceaux"
    ],
    "name:lld_x_preferred":[
        "Sceaux"
    ],
    "name:ltz_x_preferred":[
        "Sceaux"
    ],
    "name:min_x_preferred":[
        "Sceaux"
    ],
    "name:mkd_x_preferred":[
        "\u0421\u043e"
    ],
    "name:mlg_x_preferred":[
        "Sceaux"
    ],
    "name:msa_x_preferred":[
        "Sceaux"
    ],
    "name:nan_x_preferred":[
        "Sceaux"
    ],
    "name:nap_x_preferred":[
        "Sceaux"
    ],
    "name:nds_x_preferred":[
        "Sceaux"
    ],
    "name:nld_x_preferred":[
        "Sceaux"
    ],
    "name:nno_x_preferred":[
        "Sceaux"
    ],
    "name:nob_x_preferred":[
        "Sceaux"
    ],
    "name:nrm_x_preferred":[
        "Sceaux"
    ],
    "name:oci_x_preferred":[
        "Sceaux"
    ],
    "name:pap_x_preferred":[
        "Sceaux"
    ],
    "name:pcd_x_preferred":[
        "Sceaux"
    ],
    "name:pms_x_preferred":[
        "Sceaux"
    ],
    "name:pol_x_preferred":[
        "Sceaux"
    ],
    "name:por_x_preferred":[
        "Sceaux"
    ],
    "name:prg_x_preferred":[
        "Sceaux"
    ],
    "name:rgn_x_preferred":[
        "Sceaux"
    ],
    "name:roh_x_preferred":[
        "Sceaux"
    ],
    "name:ron_x_preferred":[
        "Sceaux"
    ],
    "name:rus_x_preferred":[
        "\u0421\u043e"
    ],
    "name:scn_x_preferred":[
        "Sceaux"
    ],
    "name:sco_x_preferred":[
        "Sceaux"
    ],
    "name:slk_x_preferred":[
        "Sceaux"
    ],
    "name:slv_x_preferred":[
        "Sceaux"
    ],
    "name:spa_x_preferred":[
        "Sceaux"
    ],
    "name:srd_x_preferred":[
        "Sceaux"
    ],
    "name:swa_x_preferred":[
        "Sceaux"
    ],
    "name:swe_x_preferred":[
        "Sceaux"
    ],
    "name:szl_x_preferred":[
        "Sceaux"
    ],
    "name:tat_x_preferred":[
        "\u0421\u043e"
    ],
    "name:tur_x_preferred":[
        "Sceaux"
    ],
    "name:ukr_x_preferred":[
        "\u0421\u043e"
    ],
    "name:vec_x_preferred":[
        "Sceaux"
    ],
    "name:vie_x_preferred":[
        "Sceaux"
    ],
    "name:vls_x_preferred":[
        "Sceaux"
    ],
    "name:vmf_x_preferred":[
        "Sceaux"
    ],
    "name:vol_x_preferred":[
        "Sceaux"
    ],
    "name:war_x_preferred":[
        "Sceaux"
    ],
    "name:wln_x_preferred":[
        "Sceaux"
    ],
    "name:wol_x_preferred":[
        "Sceaux"
    ],
    "name:zho_x_preferred":[
        "\u56fd\u73ba"
    ],
    "name:zho_x_variant":[
        "\u7d22\u9547"
    ],
    "name:zul_x_preferred":[
        "Sceaux"
    ],
    "qs:a0":"France",
    "qs:a1":"*Hauts-de-Seine",
    "qs:a1r":"0\u00cele-de-France",
    "qs:adm0":"France",
    "qs:id":0,
    "qs:la":"Bruy\u00e8res-sur-Oise",
    "qs:la_lc":"*FR1195303116",
    "qs:level":"locality",
    "qs:loc":"Sceaux",
    "qs:loc_alt":"Sceaux",
    "qs:pop":0,
    "qs:source":"ACustom EuroGlobalMap + UMZ Urban Polygons + Geonames + GeoPlanet",
    "qs:type":"urban core",
    "src:geom":"frgov",
    "src:geom_alt":[
        "quattroshapes_pg",
        "quattroshapes"
    ],
    "src:lbl:centroid":"mapshaper",
    "src:population":"geonames",
    "wof:belongsto":[
        85683157,
        102191581,
        85633147,
        1159322489,
        404227787,
        404227465,
        102070637
    ],
    "wof:breaches":[],
    "wof:concordances":{
        "fct:id":"0a3f8cbe-8f76-11e1-848f-cfd5bf3ef515",
        "gn:id":6451980,
        "gp:id":621471,
        "qs:id":26598,
        "qs_pg:id":884304,
        "wd:id":"Q370498",
        "wk:page":"Sceaux_(Hauts-de-Seine)"
    },
    "wof:coterminous":[
        1159322489,
        102070637
    ],
    "wof:country":"FR",
    "wof:geom_alt":[
        "quattroshapes",
        "quattroshapes_pg"
    ],
    "wof:geomhash":"19cbdb25bb0750e3c0df4b5c6eb1808c",
    "wof:hierarchy":[
        {
            "continent_id":102191581,
            "country_id":85633147,
            "county_id":102070637,
            "localadmin_id":1159322489,
            "locality_id":101751131,
            "macrocounty_id":404227787,
            "macroregion_id":404227465,
            "region_id":85683157
        }
    ],
    "wof:id":101751131,
    "wof:lang":[
        "fre"
    ],
    "wof:lastmodified":1690898032,
    "wof:name":"Sceaux",
    "wof:parent_id":1159322489,
    "wof:placetype":"locality",
    "wof:population":21511,
    "wof:population_rank":7,
    "wof:repo":"whosonfirst-data-admin-fr",
    "wof:superseded_by":[],
    "wof:supersedes":[],
    "wof:tags":[]
},
  "bbox": [
    2.278334,
    48.766604,
    2.31427,
    48.785398
],
  "geometry": {"coordinates":[[[2.303309,48.785398],[2.30361,48.785318],[2.303746,48.785274],[2.30635,48.784966],[2.309699,48.784895],[2.310475,48.784881],[2.310102,48.784259],[2.309303,48.782923],[2.309386,48.782869],[2.309346,48.782806],[2.306764,48.778375],[2.307487,48.778253],[2.307008,48.777441],[2.312177,48.77659],[2.31427,48.776827],[2.312439,48.772166],[2.311833,48.770714],[2.310851,48.770853],[2.309,48.770923],[2.307437,48.770752],[2.307403,48.770248],[2.307112,48.769599],[2.306708,48.769282],[2.305446,48.769014],[2.290253,48.766604],[2.286284,48.771329],[2.286235,48.772921],[2.2863,48.773137],[2.28642,48.773318],[2.286581,48.773471],[2.287013,48.773708],[2.286314,48.774144],[2.285264,48.774246],[2.285181,48.774372],[2.285058,48.774407],[2.284855,48.774307],[2.284502,48.774295],[2.283059,48.774341],[2.282526,48.774455],[2.282712,48.774779],[2.281532,48.774494],[2.281438,48.774421],[2.280125,48.773891],[2.279157,48.775046],[2.278334,48.77648],[2.280081,48.779063],[2.280462,48.780064],[2.280147,48.78124],[2.279932,48.782021],[2.279585,48.782487],[2.280553,48.783347],[2.281788,48.782626],[2.281985,48.783167],[2.282244,48.783105],[2.28436,48.782632],[2.284905,48.782573],[2.285655,48.782478],[2.286268,48.782473],[2.286431,48.782465],[2.287478,48.782552],[2.288008,48.782618],[2.288075,48.782645],[2.288685,48.782829],[2.289011,48.782939],[2.289119,48.782966],[2.290013,48.783251],[2.290069,48.783143],[2.291438,48.783556],[2.291367,48.783825],[2.292697,48.784094],[2.292955,48.784123],[2.303309,48.785398]]],"type":"Polygon"}
}
