{
  "id": 1360695779,
  "type": "Feature",
  "properties": {
    "edtf:cessation":"uuuu",
    "edtf:inception":"uuuu",
    "geom:area":0.000249,
    "geom:area_square_m":2009949.887718,
    "geom:bbox":"-0.486237,49.194722,-0.455765,49.214661",
    "geom:latitude":49.20341,
    "geom:longitude":-0.472467,
    "gn:population":1417,
    "iso:country":"FR",
    "lbl:latitude":49.200159,
    "lbl:longitude":-0.47502,
    "mps:latitude":49.200159,
    "mps:longitude":-0.47502,
    "mz:hierarchy_label":1,
    "mz:is_current":1,
    "mz:min_zoom":14.0,
    "name:ara_x_preferred":[
        "\u062d\u0631\u0628 \u0627\u0644\u0646\u062c\u0648\u0645 \u0627\u0644\u062c\u0632\u0621 \u0627\u0644\u062b\u0627\u0644\u062b: \u0627\u0646\u062a\u0642\u0627\u0645 \u0627\u0644\u0633\u064a\u062b"
    ],
    "name:bel_x_preferred":[
        "\u0417\u043e\u0440\u043d\u044b\u044f \u0432\u043e\u0439\u043d\u044b. \u042d\u043f\u0456\u0437\u043e\u0434 III: \u041f\u043e\u043c\u0441\u0442\u0430 \u0441\u0456\u0442\u0445\u0430\u045e"
    ],
    "name:bel_x_variant":[
        "\u0417\u043e\u0440\u043d\u044b\u044f \u0432\u043e\u0439\u043d\u044b. \u042d\u043f\u0456\u0437\u043e\u0434 III: \u041f\u043e\u043c\u0441\u0442\u0430 \u0441\u044b\u0442\u0445\u0430\u045e"
    ],
    "name:bos_x_preferred":[
        "Spodnja Hajdina"
    ],
    "name:bul_x_preferred":[
        "\u041c\u0435\u0436\u0434\u0443\u0437\u0432\u0435\u0437\u0434\u043d\u0438 \u0432\u043e\u0439\u043d\u0438: \u0415\u043f\u0438\u0437\u043e\u0434 III - \u041e\u0442\u043c\u044a\u0449\u0435\u043d\u0438\u0435\u0442\u043e \u043d\u0430 \u0441\u0438\u0442\u0438\u0442\u0435"
    ],
    "name:cat_x_preferred":[
        "Star Wars episodi III: La venjan\u00e7a dels Sith"
    ],
    "name:ceb_x_preferred":[
        "Spodnja Hajdina"
    ],
    "name:ces_x_preferred":[
        "Star Wars: Epizoda III \u2013 Pomsta Sith\u016f"
    ],
    "name:cym_x_preferred":[
        "Star Wars Episode III: Revenge of the Sith"
    ],
    "name:dan_x_preferred":[
        "Star Wars Episode III: Sith-fyrsternes h\u00e6vn"
    ],
    "name:deu_x_preferred":[
        "Star Wars: Episode III \u2013 Die Rache der Sith"
    ],
    "name:ell_x_preferred":[
        "\u039f \u03a0\u03cc\u03bb\u03b5\u03bc\u03bf\u03c2 \u03c4\u03c9\u03bd \u0386\u03c3\u03c4\u03c1\u03c9\u03bd: \u0395\u03c0\u03b5\u03b9\u03c3\u03cc\u03b4\u03b9\u03bf 3 - \u0397 \u0395\u03ba\u03b4\u03af\u03ba\u03b7\u03c3\u03b7 \u03c4\u03c9\u03bd \u03a3\u03b9\u03b8"
    ],
    "name:fra_x_preferred":[
        "Rots"
    ],
    "name:nld_x_preferred":[
        "Spodnja Hajdina"
    ],
    "name:pol_x_preferred":[
        "Spodnja Hajdina"
    ],
    "name:ron_x_preferred":[
        "Spodnja Hajdina"
    ],
    "name:slv_x_preferred":[
        "Spodnja Hajdina"
    ],
    "name:srp_x_preferred":[
        "\u0421\u043f\u043e\u0434\u045a\u0430 \u0425\u0430\u0458\u0434\u0438\u043d\u0430"
    ],
    "name:ukr_x_preferred":[
        "\u0421\u043f\u043e\u0434\u043d\u044f \u0425\u0430\u0439\u0434\u0438\u043d\u0430"
    ],
    "qs:a0":"France",
    "qs:a1":"*Calvados",
    "qs:a1r":"0Basse-Normandie",
    "qs:adm0":"France",
    "qs:id":0,
    "qs:la":"Caen",
    "qs:la_lc":"*FR2514297118",
    "qs:level":"locality",
    "qs:loc":"Rots",
    "qs:loc_alt":"Rots",
    "qs:pop":0,
    "qs:source":"ACustom EuroGlobalMap + UMZ Urban Polygons + Geonames + GeoPlanet",
    "qs:type":"urban core",
    "src:geom":"whosonfirst",
    "src:geom_alt":[],
    "src:lbl:centroid":"mapshaper",
    "src:population":"geonames",
    "wof:belongsto":[
        102191581,
        85633147,
        102066661,
        136253037,
        404407579,
        101751421,
        404227825,
        1108826393,
        85683579
    ],
    "wof:breaches":[],
    "wof:concordances":{
        "fct:id":"0a514ae4-8f76-11e1-848f-cfd5bf3ef515",
        "gn:id":2982692,
        "gp:id":620079,
        "qs:id":199508,
        "qs_pg:id":199508,
        "wk:page":"Spodnja Hajdina"
    },
    "wof:country":"FR",
    "wof:geomhash":"b9e61eb4a0ccf83433e1b4260c40d053",
    "wof:hierarchy":[
        {
            "continent_id":102191581,
            "country_id":85633147,
            "county_id":102066661,
            "empire_id":136253037,
            "localadmin_id":404407579,
            "locality_id":101751421,
            "macrocounty_id":404227825,
            "macroregion_id":1108826393,
            "neighbourhood_id":1360695779,
            "region_id":85683579
        }
    ],
    "wof:id":1360695779,
    "wof:lang":[
        "fre"
    ],
    "wof:lastmodified":1750072451,
    "wof:name":"Rots",
    "wof:parent_id":404407579,
    "wof:placetype":"neighbourhood",
    "wof:population":1417,
    "wof:population_rank":3,
    "wof:repo":"whosonfirst-data-admin-fr",
    "wof:superseded_by":[],
    "wof:supersedes":[
        101751421
    ],
    "wof:tags":[]
},
  "bbox": [
    -0.486237,
    49.194722,
    -0.455765,
    49.214661
],
  "geometry": {"coordinates":[[[[-0.455774,49.196125],[-0.455765,49.196083],[-0.455919,49.196112],[-0.455774,49.196125]]],[[[-0.470865,49.214661],[-0.4701,49.211106],[-0.471461,49.210978],[-0.471269,49.210089],[-0.47263,49.209961],[-0.472439,49.209073],[-0.474809,49.20885],[-0.475364,49.207585],[-0.474618,49.206147],[-0.474586,49.20615],[-0.474562,49.20604],[-0.474169,49.205283],[-0.471673,49.205517],[-0.471482,49.204628],[-0.46604,49.205138],[-0.46578,49.203932],[-0.463411,49.203755],[-0.463355,49.203577],[-0.461575,49.203743],[-0.461002,49.201077],[-0.459641,49.201204],[-0.459493,49.200514],[-0.458471,49.200407],[-0.45809,49.200443],[-0.458073,49.200365],[-0.457619,49.200317],[-0.457808,49.199131],[-0.457286,49.196701],[-0.456128,49.196151],[-0.457173,49.196177],[-0.458124,49.196201],[-0.461464,49.196841],[-0.463295,49.197121],[-0.463771,49.19634],[-0.464151,49.19635],[-0.465108,49.196373],[-0.464834,49.196136],[-0.46578,49.196087],[-0.46573,49.195192],[-0.470738,49.194722],[-0.47093,49.195611],[-0.47365,49.195356],[-0.473788,49.195996],[-0.474912,49.196144],[-0.476562,49.195989],[-0.476754,49.196878],[-0.480835,49.196495],[-0.481601,49.20005],[-0.482961,49.199923],[-0.483153,49.200811],[-0.480432,49.201067],[-0.48024,49.200178],[-0.4788,49.200313],[-0.477606,49.204053],[-0.478285,49.203989],[-0.478733,49.206071],[-0.479708,49.207483],[-0.480412,49.207417],[-0.480603,49.208306],[-0.486046,49.207795],[-0.486237,49.208684],[-0.484877,49.208812],[-0.48526,49.210589],[-0.482538,49.210845],[-0.482922,49.212623],[-0.481561,49.212751],[-0.481944,49.214528],[-0.480583,49.214656],[-0.480391,49.213767],[-0.479031,49.213895],[-0.478839,49.213006],[-0.474757,49.213389],[-0.474948,49.214278],[-0.470865,49.214661]],[[-0.471736,49.200596],[-0.470607,49.200176],[-0.470526,49.200183],[-0.470517,49.200142],[-0.468661,49.199451],[-0.466253,49.199677],[-0.466827,49.202344],[-0.469548,49.202089],[-0.469739,49.202978],[-0.472822,49.202688],[-0.471736,49.200596]]]],"type":"MultiPolygon"}
}