{
  "id": 404355257,
  "type": "Feature",
  "properties": {
    "edtf:cessation":"uuuu",
    "edtf:inception":"uuuu",
    "eurostat:country_code":"FR",
    "eurostat:gisco_id":"FR_05139",
    "eurostat:level_code":"lau",
    "eurostat:name_local":"D\u00e9voluy",
    "eurostat:nuts_2021_id":"05139",
    "eurostat:nuts_2021_level_0":"FR",
    "eurostat:nuts_2021_level_1":"FRL",
    "eurostat:nuts_2021_level_2":"FRL0",
    "eurostat:nuts_2021_level_3":"FRL02",
    "eurostat:nuts_2021_level_lau":"05139",
    "eurostat:population":966,
    "eurostat:population_year":2020,
    "frgov:code_epci":"200067445",
    "frgov:id":"BDCSURCO0000000317875575",
    "frgov:insee_arr":"2",
    "frgov:insee_com":"05139",
    "frgov:insee_dep":"05",
    "frgov:insee_reg":"93",
    "frgov:nom_com":"D\u00e9voluy",
    "frgov:nom_com_m":"DEVOLUY",
    "frgov:nom_dep":"HAUTES-ALPES",
    "frgov:nom_reg":"PROVENCE-ALPES-COTE D'AZUR",
    "frgov:statut":"Commune simple",
    "geom:area":0.021167,
    "geom:area_square_m":186091785.921003,
    "geom:bbox":"5.79061976663,44.6056430373,5.99311804322,44.7636104576",
    "geom:latitude":44.68479,
    "geom:longitude":5.890829,
    "iso:country":"FR",
    "label:eng_x_preferred_placetype":[
        "commune"
    ],
    "label:fra_x_preferred_placetype":[
        "commune simple"
    ],
    "lbl:latitude":44.640709,
    "lbl:longitude":5.840854,
    "mz:hierarchy_label":0,
    "mz:is_current":1,
    "name:bug_x_preferred":[
        "D\u00e9voluy"
    ],
    "name:cat_x_preferred":[
        "D\u00e9voluy"
    ],
    "name:ceb_x_preferred":[
        "D\u00e9voluy"
    ],
    "name:eus_x_preferred":[
        "D\u00e9voluy"
    ],
    "name:fra_x_preferred":[
        "D\u00e9voluy"
    ],
    "name:fra_x_variant":[
        "La Cluse"
    ],
    "name:ita_x_preferred":[
        "D\u00e9voluy"
    ],
    "name:lat_x_preferred":[
        "D\u00e9voluy"
    ],
    "name:lmo_x_preferred":[
        "D\u00e9voluy"
    ],
    "name:msa_x_preferred":[
        "D\u00e9voluy"
    ],
    "name:nld_x_preferred":[
        "D\u00e9voluy"
    ],
    "name:oci_x_preferred":[
        "D\u00e9voluy"
    ],
    "name:pms_x_preferred":[
        "D\u00e9voluy"
    ],
    "name:pol_x_preferred":[
        "D\u00e9voluy"
    ],
    "name:por_x_preferred":[
        "D\u00e9voluy"
    ],
    "name:ron_x_preferred":[
        "D\u00e9voluy"
    ],
    "name:rus_x_preferred":[
        "D\u00e9voluy"
    ],
    "name:slk_x_preferred":[
        "D\u00e9voluy"
    ],
    "name:spa_x_preferred":[
        "D\u00e9voluy"
    ],
    "name:srp_x_preferred":[
        "D\u00e9voluy"
    ],
    "name:swe_x_preferred":[
        "D\u00e9voluy"
    ],
    "name:ukr_x_preferred":[
        "D\u00e9voluy"
    ],
    "name:urd_x_preferred":[
        "D\u00e9voluy"
    ],
    "name:vie_x_preferred":[
        "D\u00e9voluy"
    ],
    "name:vol_x_preferred":[
        "D\u00e9voluy"
    ],
    "name:war_x_preferred":[
        "D\u00e9voluy"
    ],
    "name:zho_x_preferred":[
        "D\u00e9voluy"
    ],
    "nav:latitude":44.63946,
    "nav:longitude":5.84776,
    "qs:a0":"France",
    "qs:a1":"HAUTES-ALPES",
    "qs:a1_lc":"05",
    "qs:a1r":"PROVENCE-ALPES-COTE D'AZUR",
    "qs:a1r_lc":"93",
    "qs:a2_lc":"19",
    "qs:a2r_lc":"2",
    "qs:adm0":"France",
    "qs:adm0_a3":"FRA",
    "qs:la":"LA CLUSE",
    "qs:la_lc":"05042",
    "qs:level":"localadmin",
    "qs:source":"France IGN",
    "qs:type":"Commune simple",
    "src:geom":"frgov",
    "src:geom_alt":[
        "quattroshapes_pg",
        "quattroshapes"
    ],
    "src:population":"eurostat",
    "src:population_date":"2020",
    "wof:belongsto":[
        85683597,
        102191581,
        85633147,
        404227805,
        404227445,
        102067793
    ],
    "wof:breaches":[],
    "wof:concordances":{
        "eg:gisco_id":"FR_05139",
        "eurostat:nuts_2021_id":"05139",
        "fra-insee:code":"05139",
        "frgov:epci_code":"200067445",
        "gn:id":6456661,
        "gp:id":22755780,
        "qs_pg:id":1182197
    },
    "wof:concordances_official":"fra-insee:code",
    "wof:concordances_official_alt":[
        "frgov:epci_code"
    ],
    "wof:coterminous":[
        1125789639
    ],
    "wof:country":"FR",
    "wof:geom_alt":[
        "quattroshapes_pg",
        "quattroshapes"
    ],
    "wof:geomhash":"f50c0e33d18233827d6d19837abb1414",
    "wof:hierarchy":[
        {
            "continent_id":102191581,
            "country_id":85633147,
            "county_id":102067793,
            "localadmin_id":404355257,
            "macrocounty_id":404227805,
            "macroregion_id":404227445,
            "region_id":85683597
        }
    ],
    "wof:id":404355257,
    "wof:lastmodified":1695878174,
    "wof:name":"D\u00e9voluy",
    "wof:parent_id":102067793,
    "wof:placetype":"localadmin",
    "wof:placetype_local":"Commune simple",
    "wof:population":966,
    "wof:population_rank":2,
    "wof:repo":"whosonfirst-data-admin-fr",
    "wof:superseded_by":[],
    "wof:supersedes":[],
    "wof:tags":[]
},
  "bbox": [
    5.79061976663136,
    44.60564303727635,
    5.99311804322473,
    44.76361045760202
],
  "geometry": {"coordinates":[[[5.80089884574909,44.63285171708071],[5.80108968175988,44.63415308677457],[5.80138961522143,44.63485714314968],[5.80214667776184,44.63587391195677],[5.80244439658763,44.63653298099648],[5.8024059995749,44.63702941256522],[5.80098967456668,44.63874085747339],[5.80119658134537,44.63909594815043],[5.80142943174072,44.63997286463626],[5.80199090328849,44.64060723569112],[5.80262769609173,44.64072621922961],[5.80301693342919,44.64094155959691],[5.80327405852017,44.64205207540703],[5.80360657064007,44.64569202924297],[5.80281386779482,44.64599138687827],[5.80075497176503,44.6464579461416],[5.80038582655325,44.64664746370885],[5.8002124310767,44.646967147839],[5.79984551604192,44.64720164880618],[5.79755602407044,44.64785415308575],[5.79541260000971,44.64890829138924],[5.7948726652245,44.64947144973465],[5.7947703893096,44.64969924351745],[5.79439752339439,44.65006900120337],[5.79305314692249,44.65069751923376],[5.79253424820195,44.65143129262462],[5.79156871500566,44.65232047352831],[5.79098453118613,44.65301084568195],[5.79061976663136,44.65329030204329],[5.79115960572742,44.65399734427751],[5.79152076171456,44.65466385357468],[5.7923404915607,44.65567010910819],[5.79216565246013,44.65698073557656],[5.79142654938089,44.65862089945603],[5.79252084544082,44.66083635587766],[5.79437552090447,44.66133001107341],[5.79507556339406,44.66144744637724],[5.79565802910493,44.66173900898935],[5.79659998171538,44.662661074906],[5.79763040295843,44.66307642551971],[5.7978410471452,44.66325126489571],[5.79793759745306,44.66392445266374],[5.79843023945609,44.66494795553006],[5.7990481671003,44.66569803394025],[5.79945375992241,44.66725523369286],[5.79935147024876,44.66748303325021],[5.79904343262979,44.66763496392841],[5.79905192758476,44.6678059089845],[5.79930855343122,44.66788949853198],[5.79994117640723,44.66791852769704],[5.80020227698049,44.66809208623234],[5.80037003813925,44.66867338685673],[5.80039053227176,44.66933949200249],[5.79963102050795,44.67031361279716],[5.7996637537696,44.67071816385405],[5.80027094189308,44.67150454467325],[5.80017535753091,44.67186730211312],[5.79928524769177,44.6727546420821],[5.7994292241061,44.67311133609231],[5.79961916588553,44.67337678221092],[5.79946723718283,44.67387609181485],[5.7993478544,44.67401423976554],[5.79941760812021,44.67414760118897],[5.80006103700169,44.67439256083141],[5.80118570148922,44.67517484734183],[5.8027319569303,44.67580230712052],[5.80326238108684,44.67605912070626],[5.80519145568467,44.67676693059622],[5.80647484215726,44.67718480261739],[5.80755070958051,44.67723857911822],[5.81010127779017,44.67850707549929],[5.81124920696731,44.67873915644473],[5.81215482697129,44.67917557295306],[5.81282670776136,44.67973503660191],[5.81308790279268,44.67990856549896],[5.81327705802552,44.67990375539547],[5.81328155275299,44.67999372631416],[5.81443714960301,44.68063096421297],[5.81504421822886,44.68115603040297],[5.8171627768291,44.68185881950999],[5.8176910728142,44.68207057909997],[5.81828962900577,44.68267692270426],[5.81967098882574,44.68353357209065],[5.82109607453846,44.68425396209398],[5.82342157033479,44.68505045464803],[5.82463274514822,44.68528078811568],[5.82580251408546,44.68569233800323],[5.82716467419165,44.68641426099099],[5.8281751338264,44.68742442579615],[5.82922432410009,44.68819936832365],[5.82969061678392,44.68868291780311],[5.82987457049813,44.68957907511655],[5.83044097924211,44.69054652735996],[5.83004199715927,44.69115130230352],[5.82968170127769,44.69152086206291],[5.82947465935664,44.69242701949785],[5.82911887264646,44.69288654829005],[5.82901665641066,44.69311437743662],[5.82940861743995,44.69337461453015],[5.82948072715361,44.69355294331397],[5.82886362353989,44.69383898036217],[5.82854833227948,44.69409928203225],[5.82830243342345,44.69448392996768],[5.8281115052748,44.69495725873446],[5.82779217693039,44.69538882530758],[5.82752465463807,44.69584609306274],[5.82716344561784,44.6964498918799],[5.82725449190965,44.69675385932372],[5.82730999382224,44.69735601992192],[5.82734388320813,44.69803080196535],[5.82717857856419,44.69826024127585],[5.82720719373236,44.6998360226805],[5.82711625324567,44.70028877822114],[5.8261868858244,44.70089807814329],[5.82540707335653,44.70146751721586],[5.82471775696578,44.70157520001069],[5.82411002019152,44.70205015089638],[5.82188842203971,44.70283651947191],[5.82036242405208,44.70364115225274],[5.81940408693656,44.70367457882804],[5.81787489611116,44.70340723155243],[5.81590867682487,44.7032410701751],[5.81496250951973,44.70326514015476],[5.81396945519826,44.70361470391359],[5.81336927505332,44.70399030656456],[5.81267439858062,44.70499891460695],[5.81212735622728,44.70542721130302],[5.81133116158019,44.70567265359254],[5.808684913833,44.70580290006361],[5.80849342663851,44.70576271637818],[5.80803839550164,44.70550400452203],[5.80753375096939,44.70551680699091],[5.8054511327986,44.70580384010027],[5.80387455581702,44.70585280054943],[5.80313595324486,44.70624086094191],[5.80246139196893,44.70639307192412],[5.80184445829024,44.70668795691162],[5.80146999609452,44.70677851286999],[5.801191828216,44.70728102437298],[5.80125414718343,44.70827939795133],[5.80159195797847,44.70872127626627],[5.80243848432254,44.70923135177421],[5.80292264334198,44.71007490714254],[5.80318842960979,44.71033843369206],[5.80487177362253,44.7109083733166],[5.80545300782386,44.7111639008033],[5.80746126190889,44.71191474766032],[5.8081597160465,44.71198711627406],[5.80879732916909,44.71210606747317],[5.81031772796785,44.71219359674598],[5.81083096914575,44.71235172852983],[5.81116663254242,44.71274859223386],[5.8115882143918,44.71435943748575],[5.81165788508606,44.71575400580873],[5.81156679384783,44.71620675120145],[5.81133015482338,44.71652806350656],[5.81107045283152,44.7173994877581],[5.8111582654258,44.71789273294912],[5.81170216081612,44.71841042966044],[5.81342451581033,44.7197540026029],[5.81466789731886,44.72061425377898],[5.81494503996448,44.72110268366411],[5.81481112040132,44.72196191204112],[5.81486244542467,44.72273535258437],[5.81536582903267,44.72370449801586],[5.81613328285675,44.72616236683113],[5.81657361444514,44.7271331130291],[5.81740836299403,44.72840912689887],[5.81802048083539,44.72902415832219],[5.81816471989908,44.72938083532078],[5.81800919558339,44.73006044662229],[5.81753812469501,44.73074808771642],[5.81767560636012,44.7309698069296],[5.81853343202362,44.73144345332199],[5.81930652330134,44.73173907668468],[5.82024281865939,44.73251700921275],[5.82069586887058,44.73273068726231],[5.82141670690705,44.73324383738388],[5.82165250567874,44.7339134838877],[5.82239546876328,44.73461524819421],[5.82248340746551,44.73510848745746],[5.8226971240211,44.7355895119305],[5.82335129025738,44.73603228088498],[5.82379309048937,44.73602101564564],[5.8238516886875,44.73592943385158],[5.82410595206802,44.73595898457521],[5.82468979101143,44.73625939955568],[5.82542107433912,44.73672721611469],[5.82569838964753,44.73721562191393],[5.82645726825511,44.7382322629339],[5.82682571233174,44.73902463885601],[5.82743446914182,44.73981988748237],[5.82777670542201,44.74009042120359],[5.8293067209637,44.74160986237513],[5.82974332720846,44.74249958648152],[5.82978989738972,44.74317405622795],[5.82962542341789,44.74367374250237],[5.82914306743288,44.74413650538088],[5.82872559304816,44.74438139777132],[5.82779777641646,44.74503570713017],[5.827530961429,44.74576322289475],[5.82745955055973,44.74761184970627],[5.82792105404888,44.7489964321375],[5.82841453379998,44.75001083600484],[5.82844978268056,44.75046037658109],[5.82803094214701,44.75093052086581],[5.82786190612613,44.7513402332415],[5.82745748976928,44.75184604221825],[5.82670157783737,44.75416258346689],[5.82646558949362,44.75651089906953],[5.82664971361174,44.75740708368311],[5.82702872528838,44.75865864846789],[5.82709336894942,44.75969301499016],[5.82765711162635,44.7595885385502],[5.83126852801915,44.75848730682911],[5.83387963696855,44.75786199173315],[5.83519420507374,44.75760313310511],[5.83569250532153,44.75745524552698],[5.83658052147247,44.75751358992564],[5.83773471190919,44.75783537529117],[5.83842923384933,44.75781758170425],[5.83948168796724,44.75737620101899],[5.84019945012978,44.75681726743774],[5.84095482328243,44.7567528530459],[5.84137632661286,44.75633664231152],[5.84160942643319,44.75619552967163],[5.84286888782294,44.75484791624577],[5.84320777863694,44.75429868497372],[5.84463938013479,44.7528565426669],[5.84548557329068,44.75233931900154],[5.8461762601194,44.75199725347417],[5.84678935951551,44.75162114202084],[5.84839718144973,44.7511653977491],[5.84996404729577,44.75089987036391],[5.85039866331363,44.75074454418582],[5.85084285384419,44.75077815687079],[5.85187985110657,44.75128298724214],[5.8524457449949,44.75122337085898],[5.85350709522565,44.75096180127824],[5.85413383142414,44.75085556408607],[5.85608006348163,44.75084143203475],[5.85768190968071,44.75101633023949],[5.86067556461707,44.75146157231286],[5.86523149778765,44.75155101905319],[5.86624800503333,44.75165084497021],[5.86668991924603,44.75163940859636],[5.86759375702635,44.75076916857304],[5.86831528512385,44.75029102811961],[5.87050597232003,44.74986490689987],[5.87163952831916,44.74978146939065],[5.87161771547299,44.74960185512268],[5.87121368534944,44.74911683521439],[5.87120449960544,44.74893689361269],[5.87299683191638,44.74838591253749],[5.87394833003287,44.74845131688758],[5.87414230793442,44.74853637330735],[5.87449355813182,44.74897770778836],[5.87494694678159,44.7491911651618],[5.87545840703098,44.74930401412522],[5.8773987943575,44.74892929736205],[5.87888575565853,44.74834110731646],[5.87900279816426,44.74815788466032],[5.87883859274011,44.74766665710157],[5.87907267449085,44.74730021186457],[5.87950073396213,44.74701881317401],[5.88042300469938,44.74676059672478],[5.8818071379268,44.74663450001579],[5.88409530389603,44.74688124525893],[5.88524493258318,44.74711256435501],[5.88545616345673,44.74728724219471],[5.8858413769221,44.74740333224879],[5.88623397881193,44.74766337317794],[5.88726477021425,44.74804191359774],[5.88762073930976,44.74857317650087],[5.8888335438183,44.74880281266779],[5.88896903983311,44.74897945969787],[5.8894182016616,44.75009387594432],[5.88925919636777,44.75167461062534],[5.88942243398837,44.75239107816802],[5.89004438395539,44.75317665989677],[5.89097785132723,44.75387302701024],[5.89092165612232,44.75400962992964],[5.89073503318167,44.75406855495616],[5.89080464025825,44.75419286555159],[5.89113649201989,44.75449952242868],[5.89135933280361,44.75489911485563],[5.89143528094452,44.75539263233168],[5.8919588597409,44.75573932781504],[5.89227406924572,44.75572208889288],[5.89264930564151,44.75539697227519],[5.89296266174608,44.75534374335262],[5.89362321405217,44.75491207125003],[5.89405820345458,44.75476557064149],[5.8946287183822,44.75479570880417],[5.8957373104154,44.75520817956297],[5.89619592653803,44.75552051743568],[5.89687083088055,44.75634972613154],[5.89714422806609,44.75674798630048],[5.89813819677595,44.75738866071453],[5.89846315161373,44.75756034106634],[5.89885588271517,44.75782033820069],[5.90014598886404,44.75831810886521],[5.90071839940534,44.75838420367098],[5.90210741610013,44.7583478227268],[5.90253544439562,44.75806633396443],[5.90564448145758,44.75828212902986],[5.90759939778262,44.75818578817174],[5.91086247793062,44.75771269642046],[5.91243500835712,44.75658125168641],[5.9125519587382,44.75639799307719],[5.91389565970554,44.75573201132552],[5.91523330041179,44.75470580453607],[5.91546717438676,44.75433928154175],[5.91571223996696,44.75418868394708],[5.91661393208677,44.75353430163172],[5.9172954103341,44.75229110519911],[5.91795387295433,44.75182330096806],[5.91900792533934,44.75142615066403],[5.91963921331906,44.75140951187525],[5.92066515859696,44.7516887762981],[5.92113042649953,44.75212696694091],[5.92220546362268,44.75408063667131],[5.92326514120575,44.75476440397307],[5.92373513216046,44.75529255297456],[5.9240774575586,44.7555537936143],[5.92422430814193,44.75594632306841],[5.92438800340309,44.75666274011035],[5.92484398283257,44.75692097826862],[5.92618385728042,44.75715586903187],[5.92681520742593,44.75713918932853],[5.92804475195542,44.75768328758319],[5.92922849775595,44.75831867659463],[5.93026164875178,44.75873280586097],[5.93107927899079,44.75962111080253],[5.93133136059063,44.75960543132968],[5.93151608328387,44.75951045038651],[5.93290698471579,44.75950967084977],[5.93366228734748,44.75944462453892],[5.93430962270386,44.75973379508746],[5.93518885386569,44.75962040920986],[5.93544140396228,44.75961371723404],[5.93621502604501,44.75989953046628],[5.93654950807778,44.7602510361291],[5.93676799550346,44.76056056955738],[5.93742522910169,44.76103865572204],[5.93792213509043,44.76183631614242],[5.93816837229769,44.76267666069512],[5.93798559468951,44.76305088989728],[5.93726872511088,44.76361045760202],[5.93777386057443,44.76359706357704],[5.93800909894012,44.76350073215024],[5.93882712074216,44.76342497915574],[5.94020957737946,44.76301891510839],[5.94226412983224,44.76264904114494],[5.943393127105,44.76247490101908],[5.94538723034495,44.76191737811179],[5.94821121191309,44.76078816541834],[5.94945274492555,44.76034969594694],[5.95112158343921,44.75962053934214],[5.95107354510924,44.75894611747821],[5.95145565177826,44.7580350019773],[5.95208508782591,44.75701819111977],[5.95193992911082,44.75666168552082],[5.95142434937268,44.7562339660838],[5.950887773115,44.75588788796144],[5.94994964000054,44.75487680205291],[5.9495765274389,44.75403085151781],[5.94952143472853,44.75322147883942],[5.94973301576379,44.75267528471086],[5.94964629350209,44.75222712782886],[5.9492302492843,44.75152646996332],[5.94900076674086,44.75076678795659],[5.94920998475637,44.7501756115143],[5.94957694811085,44.7499406065907],[5.94988502928272,44.74978825254166],[5.94976352071865,44.74795358819066],[5.94921842969244,44.74720231323241],[5.9488910214313,44.74698579862915],[5.94874590883143,44.74662929010758],[5.94871441794496,44.74626975638413],[5.94838277263501,44.74597226964634],[5.94835211889705,44.74538748120051],[5.94843272472258,44.74475468438779],[5.94870976252028,44.74425179707227],[5.94900838119199,44.74391951099614],[5.95059001977936,44.74081422116531],[5.95100776066954,44.74034361588787],[5.9512753135056,44.73966078864284],[5.95145285650091,44.73943082444406],[5.95159735398487,44.73857109029517],[5.95157939749933,44.73726522201025],[5.95136184819126,44.73600972080727],[5.95121014071107,44.73552726310053],[5.95143142874744,44.73492675255729],[5.9516042359584,44.73460682153467],[5.95159715566674,44.73447187109654],[5.95193014182599,44.73383234489491],[5.95217077160054,44.73360069756228],[5.95248249946626,44.73255631895051],[5.95250229524174,44.73197018823132],[5.95267744812549,44.73169523928716],[5.95328441930721,44.73121957819203],[5.95463816958232,44.72956179109433],[5.95546835064973,44.7287648357647],[5.95558037706563,44.72849156698537],[5.95543763267192,44.7281800528722],[5.95546212192141,44.72768388911751],[5.95585183902826,44.72668246514313],[5.95608769541334,44.7263608433818],[5.95633536672502,44.72626413737134],[5.95678131805294,44.72633331167233],[5.95704317264133,44.72650650350179],[5.95717173632381,44.72654811595646],[5.95754797043187,44.7264930195327],[5.95805121961568,44.72548855404054],[5.95839543189237,44.72506492976699],[5.9583694156953,44.72457011481198],[5.95822240888811,44.72417763502447],[5.95887815595251,44.72343035956758],[5.95913054086619,44.72342361369669],[5.95932219531275,44.72346353705147],[5.95970077280388,44.72345341651159],[5.95981276810479,44.72318014397485],[5.95982538575772,44.7224590645957],[5.96157651567607,44.72019594946068],[5.96348999167726,44.71837892237142],[5.96366741766562,44.71814894035933],[5.96337401309726,44.71761623885376],[5.9636460459134,44.71702335320541],[5.96369018264749,44.71666180060461],[5.96417593542074,44.7162884230477],[5.96527786245705,44.71561925088108],[5.96557907603066,44.71534090301771],[5.96613094292965,44.71406481754826],[5.96684167775027,44.71340611090395],[5.967019074378,44.71317612393776],[5.96804330840199,44.71247296798253],[5.96854825636944,44.71222518523441],[5.96907965879562,44.71176046774751],[5.96955346619988,44.71116215362845],[5.970439123717,44.71022845082766],[5.97056053745103,44.71013509945163],[5.97296664156152,44.71024167185975],[5.98072129183609,44.70995201874019],[5.98128186763481,44.70980178047699],[5.98232724609264,44.70854834836479],[5.98311627650707,44.70794147775114],[5.98380050388519,44.70678785781891],[5.9839680568172,44.70661216317991],[5.98472804994734,44.70641148297458],[5.98564985696655,44.70592714292817],[5.98618821833837,44.70559729125208],[5.98668279666807,44.70539474909205],[5.98812110721153,44.70512168088975],[5.98867922670465,44.7049264232287],[5.99023104926077,44.70465026155646],[5.99089427081843,44.70405574123544],[5.9927011552294,44.7026374720463],[5.99292952516154,44.70218082846728],[5.9930023928927,44.7014130630358],[5.99284803027101,44.70088568642045],[5.99250332695135,44.70057968139578],[5.99053409872826,44.69941665605062],[5.99039428992119,44.6989249211681],[5.99028037653741,44.69820725334619],[5.98984683448125,44.69741713847019],[5.98550854709715,44.69349810736048],[5.98064641813143,44.68969214356287],[5.97837323905929,44.68754609518438],[5.97790377700199,44.68702718739078],[5.97695607337996,44.68606167689061],[5.97668768692638,44.68576258470385],[5.97555562231483,44.6848921163198],[5.97547878265352,44.68463291569624],[5.97626232099125,44.68392713857207],[5.9764859926652,44.68338056785457],[5.97664163723787,44.68202499783868],[5.97692359019997,44.68138676597853],[5.97782293008702,44.68072290668382],[5.97857354965259,44.67939636239655],[5.97926704268693,44.6784227105642],[5.9796862294004,44.67823123563933],[5.98025125355276,44.67817096825305],[5.98075513648103,44.67814838237201],[5.98122377449687,44.67746006191935],[5.98143714517584,44.67695880423295],[5.981793970073,44.67654377134993],[5.98215555380352,44.67621870110845],[5.98250712763454,44.67570470595638],[5.98408631934426,44.67381522418765],[5.98503466466224,44.67288871318024],[5.98556386011708,44.67215369269267],[5.98585030429559,44.67065043048049],[5.98618729452392,44.6701007797117],[5.98654881156348,44.66977569590328],[5.98688578974672,44.66922604318837],[5.98712667823104,44.66876907679035],[5.98819809103167,44.66778515751917],[5.98879194481325,44.66731865002645],[5.9895729745941,44.66562182643285],[5.98992250443187,44.66507182456223],[5.9898938513748,44.66453204651348],[5.98969043786895,44.66426726942375],[5.98951835001753,44.66364127697406],[5.98920607268541,44.66370377339081],[5.98893008957232,44.6632607726194],[5.98883774816687,44.66294794628008],[5.98892561312472,44.66222483556467],[5.9892114321239,44.66190178816787],[5.98951558380849,44.66049714073981],[5.9896302678001,44.65837688017712],[5.99011992138068,44.65713839120485],[5.99027555648439,44.65650353955459],[5.98996837427332,44.65571002894428],[5.98963131501152,44.65530472038585],[5.98878629334896,44.65484106897843],[5.988308699102,44.6544035188126],[5.98791420479315,44.65315289651294],[5.98767076585054,44.65213243038544],[5.98791312272185,44.65099072749187],[5.98778550221691,44.65001217849116],[5.9878607580346,44.64928941274472],[5.98919492675358,44.64541545250459],[5.98961450239531,44.64499869573777],[5.9901763182807,44.6448844010355],[5.99109277429137,44.6443190607815],[5.99165722010784,44.64330377247735],[5.99226816579235,44.64292687185354],[5.99311804322473,44.64253448972746],[5.99311087512355,44.64239954657243],[5.99271660244909,44.64210390981706],[5.99124410390253,44.64170231499914],[5.98985372344752,44.64165884551991],[5.98959454870388,44.64153071785446],[5.98936191467075,44.64095141552011],[5.98916288379569,44.64076760582807],[5.98809231253825,44.64080555799549],[5.98758113469386,44.64068423731014],[5.98732006186561,44.64052011945275],[5.98684498458256,44.64012754650452],[5.9859130288369,44.64016173247589],[5.98536269020136,44.64049191499386],[5.98492405454244,44.64054880532458],[5.98428735713858,44.64043986795681],[5.98302492333282,44.64042889590758],[5.98254471075818,44.6408923080381],[5.98211866978562,44.64094884728549],[5.98186903718615,44.64100062659907],[5.97949296538798,44.64045207507981],[5.97886293770993,44.64046905415544],[5.97800823771965,44.64077136372874],[5.9771939496312,44.64088338756784],[5.97662216749378,44.64080869435514],[5.97573584607206,44.6407514746497],[5.97528532332651,44.64058341978085],[5.97481032931918,44.64019079513216],[5.97405239862329,44.64017515244214],[5.97354125671694,44.64005376689703],[5.97309881526741,44.64003864002755],[5.97251708125132,44.6397750035779],[5.97197626470973,44.63933008324343],[5.97152861093569,44.63921599090374],[5.97104668477663,44.63940912538514],[5.97047729691057,44.63937938191963],[5.96969018413873,44.63904917754964],[5.96898768778303,44.63888786685814],[5.96836288725651,44.63900374543109],[5.96704032934353,44.6390482604891],[5.96634020843492,44.63893191453191],[5.96564474908285,44.6381848079987],[5.96560421556537,44.63765436358051],[5.96521314186578,44.63765584565198],[5.96445962449688,44.63724362348965],[5.96392096417846,44.6370778878514],[5.96301974930296,44.6369759225815],[5.9625459867542,44.63684447682429],[5.96175202987522,44.63662250982404],[5.96059866916112,44.63628403812142],[5.95973668960938,44.63620802271444],[5.95887581101098,44.63639323160017],[5.95817464454171,44.63601560307363],[5.95729724007061,44.63588592782141],[5.95644819923267,44.63557530776059],[5.9545391901602,44.63574346642845],[5.95346290266213,44.6354298888075],[5.95251626651526,44.63494166803459],[5.95191089620094,44.6347055858819],[5.95156081678767,44.63452574657288],[5.9503868367873,44.63379132884025],[5.94973532888103,44.63363754734079],[5.94928964854668,44.6335593507027],[5.94863897796769,44.63318031742153],[5.94761222733321,44.6328473460204],[5.9467111095907,44.63274524801975],[5.94528337185678,44.63198150846164],[5.9442660626266,44.63182843370779],[5.94379605751687,44.63152564103349],[5.94334805291531,44.63140243859726],[5.94269360522116,44.63070816174007],[5.9415753789369,44.63007127006203],[5.93886362227589,44.62911639621851],[5.93852105786683,44.62883722068619],[5.93766062868,44.62878802262202],[5.93600014641002,44.62742676317537],[5.9351027302109,44.62666682954988],[5.93159504771512,44.62738153669582],[5.93124792053579,44.62749884964516],[5.92992235865665,44.62772318320859],[5.92709574723352,44.62795122920138],[5.92634920479089,44.62815117429057],[5.92582663326268,44.62853437048506],[5.92481740356807,44.6295070073711],[5.92477401274719,44.62964328776767],[5.924303216011,44.63029537061077],[5.92365322560154,44.63089813851763],[5.92278530951723,44.63119135692619],[5.9214162267639,44.63155186853886],[5.92029397857433,44.63180674476762],[5.91885255090567,44.63198895935948],[5.91753011871157,44.63203288222014],[5.91578629820478,44.63222303780829],[5.914589383948,44.63225460534844],[5.91270695592935,44.63244836674567],[5.912271099063,44.63255894784448],[5.91145215164963,44.63258052205749],[5.90996724652186,44.63289889620589],[5.90902874056015,44.63329295887295],[5.90890739045766,44.63338624005786],[5.90847801899025,44.63362275777999],[5.90782317910702,44.63413546798203],[5.90708808840729,44.63456019714743],[5.9063586268912,44.63484964190899],[5.9053557496585,44.63497510219363],[5.9053580686946,44.63502008498376],[5.90529275082292,44.63497675802586],[5.90401469320166,44.63465900117523],[5.90284077873852,44.63415832037232],[5.90164789374513,44.63328876790795],[5.90105313367642,44.63276385593615],[5.90086182883364,44.63272383312259],[5.90078957118634,44.63254555501496],[5.89986076865891,44.63190328122904],[5.89864117948662,44.63149384423222],[5.89708304918104,44.63063382455135],[5.89423956503842,44.6295552064536],[5.89390843171556,44.6292485730512],[5.89415116333105,44.62906204377261],[5.89473614573974,44.62841611666877],[5.89505066626362,44.62741692384956],[5.89541705637379,44.62718210903662],[5.89544434063619,44.62673096030814],[5.89522764348568,44.62619611650735],[5.89530740897553,44.62529315951783],[5.8946659751257,44.62508474470766],[5.8916310869144,44.62395703156763],[5.89006344217939,44.62315122454876],[5.8886620721035,44.62288156882338],[5.88814205183987,44.62257985778614],[5.88785446709977,44.62213694147233],[5.88737900946633,44.621473717672],[5.88557356540577,44.61996238347672],[5.88507078949657,44.61975029529503],[5.88487154780356,44.61980053977385],[5.88411851952229,44.61987424680647],[5.88373832276796,44.61983912563689],[5.88187191600684,44.61959953849642],[5.88113874306429,44.61932137227603],[5.8804425378927,44.61951969307383],[5.87949891061212,44.61931907024561],[5.87821388097235,44.61959577816125],[5.87568351634513,44.61894997548998],[5.87535066449661,44.61811183142286],[5.87482045729503,44.617855369161],[5.87458801235139,44.61799654438832],[5.874352355185,44.61807474273738],[5.87369551956524,44.61805579131961],[5.87359679852403,44.61785116170115],[5.87310894871147,44.61718820520603],[5.87254143102881,44.61694171121115],[5.87226751014456,44.61651642117069],[5.87137801125149,44.61638639270746],[5.87076379123111,44.61621317191015],[5.86893190788422,44.61615264492315],[5.86829572644865,44.61554757159184],[5.86728328238363,44.61523152315614],[5.86700230424833,44.61491450693811],[5.86676277545685,44.61466848292132],[5.86606844207853,44.61440723027931],[5.86430670974362,44.61423670673558],[5.8630147330118,44.61363058571597],[5.86278096968356,44.61324927697932],[5.86195067368117,44.61279333523185],[5.86146365151076,44.61239155800232],[5.86100118119925,44.61172789717244],[5.86017457322324,44.61134391563331],[5.8597290108654,44.61101312621887],[5.85923873074746,44.6110438312293],[5.85890077615674,44.61084538113529],[5.85917247942456,44.61023478324315],[5.85885890519974,44.60952221975248],[5.85845023556168,44.60917245448626],[5.85816477659943,44.60876544995308],[5.85757039683151,44.60848354485823],[5.85697704999553,44.60772416208792],[5.85656823657289,44.60712215793159],[5.85645724264114,44.60592690442621],[5.85593846233524,44.60564303727635],[5.85447415241879,44.60660874807147],[5.85313497448918,44.60780542661121],[5.85303756183835,44.60812323732009],[5.85324468390888,44.60847822630499],[5.85327883013766,44.60915297749425],[5.85311267869637,44.60960769009248],[5.85251831126265,44.61007345834264],[5.85177902234694,44.61041684554267],[5.85101879714431,44.61034637974232],[5.85034201399955,44.61067913577245],[5.84941682907659,44.61083812494201],[5.84898965301892,44.61111939307087],[5.84842334295166,44.61114300184815],[5.8478520335796,44.61106764388214],[5.84698448329053,44.6113692616595],[5.84591437610245,44.61140583709566],[5.84537155382326,44.61164502718171],[5.84417878126043,44.61200003881213],[5.8436324263512,44.61241947925758],[5.84305337638241,44.6131910861875],[5.84268958104241,44.61347970660879],[5.8420253065708,44.61381208810072],[5.84087805889428,44.61457127018309],[5.84001223029544,44.61490882067572],[5.83950985527549,44.61520099168864],[5.83924380556425,44.61592850037089],[5.83881200984418,44.61611976206862],[5.83824972184034,44.61622428968405],[5.83818040088239,44.61609995248875],[5.83702923661022,44.61477825349723],[5.83617657351603,44.61412451238929],[5.83546617322478,44.61379141673615],[5.83431901399146,44.61355059599432],[5.83285839953329,44.61359705966711],[5.83211894476133,44.6139403158473],[5.83094671373844,44.61420457148512],[5.82950635128477,44.61440361368032],[5.82782530721715,44.61458177130861],[5.82567192848646,44.61489809919891],[5.82458198359633,44.61529530715718],[5.82385505211109,44.61563818632189],[5.82326081055534,44.61586056208044],[5.82242004885127,44.61619733132152],[5.82077810150948,44.61741033993128],[5.81985678176032,44.61815452025912],[5.81872849188948,44.6190481051426],[5.81777203095618,44.61959498019299],[5.81688888539962,44.62009493622219],[5.81550408802086,44.62065270805895],[5.8148359567305,44.62116518562318],[5.81419433440306,44.62195624200999],[5.81380868726401,44.62282185249479],[5.81376004742686,44.6233635905705],[5.81356110707401,44.62417940502927],[5.81341661923013,44.62482267479227],[5.81409100911437,44.62544509748292],[5.81440324781863,44.6256353303903],[5.81368106132627,44.62607710996327],[5.81294042820031,44.62640224571078],[5.81105681031912,44.62758521900354],[5.81002714940313,44.62869240154355],[5.80901148077386,44.62932177676468],[5.80835354549645,44.62978891200575],[5.80766507280827,44.6298964857118],[5.80673178146456,44.6301544052165],[5.80417060051997,44.63166975048334],[5.80282453457176,44.63225339797995],[5.80089884574909,44.63285171708071]]],"type":"Polygon"}
}