{
  "id": 1125782045,
  "type": "Feature",
  "properties": {
    "edtf:cessation":"uuuu",
    "edtf:inception":"uuuu",
    "geom:area":0.000383,
    "geom:area_square_m":3082446.478447,
    "geom:bbox":"0.031425,49.325279,0.060128,49.352866",
    "geom:latitude":49.338202,
    "geom:longitude":0.048002,
    "gn:gn_country":"FR",
    "gn:gn_fcode":"PPL",
    "gn:gn_pop":536,
    "gn:population":536,
    "iso:country":"FR",
    "lbl:latitude":49.35,
    "lbl:longitude":0.03333,
    "mz:hierarchy_label":1,
    "mz:is_current":1,
    "mz:note":"Quattroshapes Point Gazetteer import 20170519",
    "name:afr_x_preferred":[
        "Benerville-sur-Mer"
    ],
    "name:arg_x_preferred":[
        "Benerville-sur-Mer"
    ],
    "name:ast_x_preferred":[
        "Benerville-sur-Mer"
    ],
    "name:bam_x_preferred":[
        "Benerville-sur-Mer"
    ],
    "name:bar_x_preferred":[
        "Benerville-sur-Mer"
    ],
    "name:bre_x_preferred":[
        "Benerville-sur-Mer"
    ],
    "name:cat_x_preferred":[
        "Benerville-sur-Mer"
    ],
    "name:ceb_x_preferred":[
        "Benerville-sur-Mer"
    ],
    "name:ces_x_preferred":[
        "Benerville-sur-Mer"
    ],
    "name:che_x_preferred":[
        "\u0411\u0435\u043d\u0435\u0433\u04c0\u0432\u0438\u043b\u044c-\u0441\u0443\u044c\u0433\u04c0-\u041c\u0435\u0433\u04c0"
    ],
    "name:cos_x_preferred":[
        "Benerville-sur-Mer"
    ],
    "name:cym_x_preferred":[
        "Benerville-sur-Mer"
    ],
    "name:dan_x_preferred":[
        "Benerville-sur-Mer"
    ],
    "name:deu_x_preferred":[
        "Benerville-sur-Mer"
    ],
    "name:ell_x_preferred":[
        "\u039c\u03c0\u03b5\u03bd\u03b5\u03c1\u03b2\u03af\u03bb-\u03c3\u03c5\u03c1-\u039c\u03b5\u03c1"
    ],
    "name:eng_x_preferred":[
        "Benerville-sur-Mer"
    ],
    "name:epo_x_preferred":[
        "Benerville-sur-Mer"
    ],
    "name:est_x_preferred":[
        "Benerville-sur-Mer"
    ],
    "name:eus_x_preferred":[
        "Benerville-sur-Mer"
    ],
    "name:fao_x_preferred":[
        "Benerville-sur-Mer"
    ],
    "name:fin_x_preferred":[
        "Benerville-sur-Mer"
    ],
    "name:fra_x_preferred":[
        "Benerville-sur-Mer"
    ],
    "name:frc_x_preferred":[
        "Benerville-sur-Mer"
    ],
    "name:frp_x_preferred":[
        "Benerville-sur-Mer"
    ],
    "name:fur_x_preferred":[
        "Benerville-sur-Mer"
    ],
    "name:gla_x_preferred":[
        "Benerville-sur-Mer"
    ],
    "name:gle_x_preferred":[
        "Benerville-sur-Mer"
    ],
    "name:glg_x_preferred":[
        "Benerville-sur-Mer"
    ],
    "name:gsw_x_preferred":[
        "Benerville-sur-Mer"
    ],
    "name:hrv_x_preferred":[
        "Benerville-sur-Mer"
    ],
    "name:hun_x_preferred":[
        "Benerville-sur-Mer"
    ],
    "name:hye_x_preferred":[
        "\u0532\u0565\u0576\u0565\u0580\u057e\u056b\u056c \u057d\u0575\u0578\u0582\u0580 \u0544\u0565\u0580"
    ],
    "name:ido_x_preferred":[
        "Benerville-sur-Mer"
    ],
    "name:ile_x_preferred":[
        "Benerville-sur-Mer"
    ],
    "name:ina_x_preferred":[
        "Benerville-sur-Mer"
    ],
    "name:ind_x_preferred":[
        "Benerville-sur-Mer"
    ],
    "name:isl_x_preferred":[
        "Benerville-sur-Mer"
    ],
    "name:ita_x_preferred":[
        "Benerville-sur-Mer"
    ],
    "name:jam_x_preferred":[
        "Benerville-sur-Mer"
    ],
    "name:kab_x_preferred":[
        "Benerville-sur-Mer"
    ],
    "name:kal_x_preferred":[
        "Benerville-sur-Mer"
    ],
    "name:kaz_x_preferred":[
        "\u0411\u0435\u043d\u0435\u0440\u0432\u0438\u043b\u044c-\u0441\u044e\u0440-\u041c\u0435\u0440"
    ],
    "name:kon_x_preferred":[
        "Benerville-sur-Mer"
    ],
    "name:kur_x_preferred":[
        "Benerville-sur-Mer"
    ],
    "name:lat_x_preferred":[
        "Benerville-sur-Mer"
    ],
    "name:lav_x_preferred":[
        "Benerville-sur-Mer"
    ],
    "name:lij_x_preferred":[
        "Benerville-sur-Mer"
    ],
    "name:lim_x_preferred":[
        "Benerville-sur-Mer"
    ],
    "name:lit_x_preferred":[
        "Benerville-sur-Mer"
    ],
    "name:lld_x_preferred":[
        "Benerville-sur-Mer"
    ],
    "name:ltz_x_preferred":[
        "Benerville-sur-Mer"
    ],
    "name:min_x_preferred":[
        "Benerville-sur-Mer"
    ],
    "name:mlg_x_preferred":[
        "Benerville-sur-Mer"
    ],
    "name:msa_x_preferred":[
        "Benerville-sur-Mer"
    ],
    "name:nan_x_preferred":[
        "Benerville-sur-Mer"
    ],
    "name:nap_x_preferred":[
        "Benerville-sur-Mer"
    ],
    "name:nds_x_preferred":[
        "Benerville-sur-Mer"
    ],
    "name:nld_x_preferred":[
        "Benerville-sur-Mer"
    ],
    "name:nno_x_preferred":[
        "Benerville-sur-Mer"
    ],
    "name:nob_x_preferred":[
        "Benerville-sur-Mer"
    ],
    "name:nrm_x_preferred":[
        "Benerville-sur-Mer"
    ],
    "name:oci_x_preferred":[
        "Benerville-sur-Mer"
    ],
    "name:pam_x_preferred":[
        "Benerville-sur-Mer"
    ],
    "name:pap_x_preferred":[
        "Benerville-sur-Mer"
    ],
    "name:pcd_x_preferred":[
        "Benerville-sur-Mer"
    ],
    "name:pms_x_preferred":[
        "Benerville-sur-Mer"
    ],
    "name:pol_x_preferred":[
        "Benerville-sur-Mer"
    ],
    "name:por_x_preferred":[
        "Benerville-sur-Mer"
    ],
    "name:prg_x_preferred":[
        "Benerville-sur-Mer"
    ],
    "name:rgn_x_preferred":[
        "Benerville-sur-Mer"
    ],
    "name:roh_x_preferred":[
        "Benerville-sur-Mer"
    ],
    "name:ron_x_preferred":[
        "Benerville-sur-Mer"
    ],
    "name:rus_x_preferred":[
        "\u0411\u0435\u043d\u0435\u0440\u0432\u0438\u043b\u044c-\u0441\u044e\u0440-\u041c\u0435\u0440"
    ],
    "name:scn_x_preferred":[
        "Benerville-sur-Mer"
    ],
    "name:sco_x_preferred":[
        "Benerville-sur-Mer"
    ],
    "name:slk_x_preferred":[
        "Benerville-sur-Mer"
    ],
    "name:spa_x_preferred":[
        "Benerville-sur-Mer"
    ],
    "name:sqi_x_preferred":[
        "Benerville-sur-Mer"
    ],
    "name:srd_x_preferred":[
        "Benerville-sur-Mer"
    ],
    "name:srp_x_preferred":[
        "\u0411\u0435\u043d\u0435\u0440\u0432\u0438\u043b \u043d\u0430 \u041c\u043e\u0440\u0443"
    ],
    "name:swa_x_preferred":[
        "Benerville-sur-Mer"
    ],
    "name:swe_x_preferred":[
        "Benerville-sur-Mer"
    ],
    "name:tat_x_preferred":[
        "\u0411\u0435\u043d\u0435\u0440\u0432\u0438\u043b\u044c-\u0441\u044e\u0440-\u041c\u0435\u0440"
    ],
    "name:tur_x_preferred":[
        "Benerville-sur-Mer"
    ],
    "name:ukr_x_preferred":[
        "\u0411\u0435\u043d\u0435\u0440\u0432\u0456\u043b\u044c-\u0441\u044e\u0440-\u041c\u0435\u0440"
    ],
    "name:unk_x_variant":[
        "B\u00e9nerville"
    ],
    "name:uzb_x_preferred":[
        "Benerville-sur-Mer"
    ],
    "name:vec_x_preferred":[
        "Benerville-sur-Mer"
    ],
    "name:vie_x_preferred":[
        "Benerville-sur-Mer"
    ],
    "name:vls_x_preferred":[
        "Benerville-sur-Mer"
    ],
    "name:vmf_x_preferred":[
        "Benerville-sur-Mer"
    ],
    "name:vol_x_preferred":[
        "Benerville-sur-Mer"
    ],
    "name:war_x_preferred":[
        "Benerville-sur-Mer"
    ],
    "name:wln_x_preferred":[
        "Benerville-sur-Mer"
    ],
    "name:wol_x_preferred":[
        "Benerville-sur-Mer"
    ],
    "name:yue_x_preferred":[
        "Benerville-sur-Mer"
    ],
    "name:zho_x_preferred":[
        "\u6ee8\u6d77\u4f2f\u5185\u5c14\u7ef4\u5c14"
    ],
    "name:zul_x_preferred":[
        "Benerville-sur-Mer"
    ],
    "qs_pg:aaroncc":"FR",
    "qs_pg:gn_country":"FR",
    "qs_pg:gn_fcode":"PPL",
    "qs_pg:gn_id":3033502,
    "qs_pg:gn_pop":536,
    "qs_pg:name":"Benerville-sur-Mer",
    "qs_pg:name_adm0":"France",
    "qs_pg:name_adm1":"Basse-Normandie",
    "qs_pg:photos":28,
    "qs_pg:photos_1k":6,
    "qs_pg:photos_9k":1,
    "qs_pg:photos_9r":2,
    "qs_pg:photos_all":28,
    "qs_pg:photos_sr":2,
    "qs_pg:pop_sr":2,
    "qs_pg:qs_id":467106,
    "qs_pg:qs_pg_placetype":"locality",
    "qs_pg:qs_pg_placetype_gp":"Town",
    "qs_pg:woe_adm0":23424819,
    "qs_pg:woe_id":579264,
    "src:geom":"frgov",
    "src:geom_alt":[
        "qs_pg"
    ],
    "src:lbl:centroid":"qs_pg",
    "src:population":"geonames",
    "woe:adm0_id":23424819,
    "woe:name_adm0":"France",
    "woe:name_adm1":"Basse-Normandie",
    "woe:placetype":"Town",
    "wof:belongsto":[
        85683579,
        102191581,
        404228031,
        404422563,
        85633147,
        1108826393,
        136253037,
        102070567
    ],
    "wof:breaches":[],
    "wof:concordances":{
        "gn:id":3033502,
        "gp:id":579264,
        "qs_pg:id":467106,
        "wd:id":"Q843410"
    },
    "wof:coterminous":[
        404422563
    ],
    "wof:country":"FR",
    "wof:created":1497290526,
    "wof:geom_alt":[
        "qs_pg"
    ],
    "wof:geomhash":"82fc14dfe3e075ef846d1b95971f3593",
    "wof:hierarchy":[
        {
            "continent_id":102191581,
            "country_id":85633147,
            "county_id":102070567,
            "empire_id":136253037,
            "localadmin_id":404422563,
            "locality_id":1125782045,
            "macrocounty_id":404228031,
            "macroregion_id":1108826393,
            "region_id":85683579
        }
    ],
    "wof:id":1125782045,
    "wof:lastmodified":1784418387,
    "wof:name":"Benerville-sur-Mer",
    "wof:parent_id":404422563,
    "wof:placetype":"locality",
    "wof:population":536,
    "wof:population_rank":2,
    "wof:repo":"whosonfirst-data-admin-fr",
    "wof:superseded_by":[],
    "wof:supersedes":[],
    "wof:tags":[]
},
  "bbox": [
    0.031425,
    49.325279,
    0.060128,
    49.352866
],
  "geometry": {"coordinates":[[[0.045947,49.326897],[0.046009,49.327258],[0.046357,49.327429],[0.046319,49.327851],[0.044438,49.328965],[0.044512,49.32912],[0.044224,49.329347],[0.044002,49.329854],[0.043811,49.330551],[0.043856,49.330957],[0.042998,49.33081],[0.042886,49.331077],[0.042294,49.332286],[0.041933,49.332817],[0.041786,49.332975],[0.041536,49.333023],[0.040237,49.333342],[0.040166,49.333619],[0.040482,49.333879],[0.041498,49.333679],[0.042489,49.334881],[0.042871,49.335655],[0.043004,49.335748],[0.04293,49.335837],[0.03904,49.336704],[0.038262,49.337054],[0.037256,49.337793],[0.036671,49.338634],[0.036485,49.339484],[0.036412,49.339797],[0.035444,49.339872],[0.032987,49.340945],[0.031425,49.34177],[0.031552,49.341953],[0.03202,49.34219],[0.03256,49.342608],[0.032696,49.342647],[0.032892,49.342832],[0.03336,49.343068],[0.033892,49.343396],[0.034162,49.343484],[0.035382,49.344053],[0.036052,49.344375],[0.036914,49.344945],[0.037333,49.345082],[0.037952,49.345097],[0.038223,49.344923],[0.038564,49.344977],[0.040182,49.345817],[0.043245,49.346908],[0.044859,49.347803],[0.046049,49.348677],[0.047603,49.349426],[0.049348,49.350449],[0.049807,49.350856],[0.053148,49.352862],[0.053299,49.352866],[0.05422,49.352169],[0.054563,49.350513],[0.054514,49.350152],[0.054049,49.349871],[0.054086,49.348972],[0.054433,49.347488],[0.054002,49.346353],[0.0535,49.345495],[0.053577,49.345362],[0.054343,49.345192],[0.054406,49.343619],[0.054284,49.343346],[0.054429,49.343215],[0.054778,49.343133],[0.054644,49.342815],[0.054318,49.342502],[0.054331,49.342277],[0.054612,49.342185],[0.055027,49.34215],[0.054805,49.341209],[0.054659,49.340396],[0.054481,49.339402],[0.054282,49.338795],[0.054982,49.338596],[0.054856,49.338395],[0.0555,49.337952],[0.055127,49.337736],[0.055851,49.337358],[0.056591,49.336683],[0.056109,49.336455],[0.056306,49.336379],[0.056012,49.335014],[0.057003,49.334768],[0.057989,49.334378],[0.058771,49.333948],[0.059421,49.333415],[0.05981,49.332615],[0.05954,49.332293],[0.059764,49.331984],[0.060128,49.331633],[0.059569,49.330324],[0.059413,49.329196],[0.059217,49.328786],[0.058672,49.328683],[0.058503,49.327779],[0.058376,49.327605],[0.056959,49.327112],[0.055317,49.326946],[0.054784,49.326627],[0.054577,49.326397],[0.052975,49.325288],[0.052632,49.325279],[0.048051,49.326445],[0.046941,49.326598],[0.045947,49.326897]]],"type":"Polygon"}
}
